{"type":"Topology","transform":{"scale":[0.0003225274165274166,8.571496299999999e-05],"translate":[-176.696676,-14.37374]},"arcs":[[[216734,544781],[2,2],[-1,5],[3,2],[0,6],[-3,15],[1,6],[3,-15],[1,2],[2,-15],[2,-18],[-3,-33],[1,-18],[-8,61]],[[215170,544399],[6,33],[29,-4],[13,31],[5,4],[15,-3],[151,2],[1,-5],[3,6],[145,3],[43,1],[4,52],[10,203],[1,28],[3,18],[8,107],[9,7],[2,19],[-2,29],[4,18],[7,1],[18,22],[15,23],[11,30],[16,36],[18,83],[12,-58],[9,-35],[6,-17],[18,-38],[17,268],[0,110],[2,23],[3,15],[1,23],[-3,7],[57,240],[15,-15],[18,-47],[7,-30],[7,-7],[-5,15],[-3,25],[-3,8],[-4,30],[0,13],[3,39],[8,25],[4,25],[-4,18],[-7,9],[-3,17],[-4,65],[-1,68],[4,50],[8,11],[7,16],[6,6],[14,0],[5,8],[6,27],[7,63],[0,46],[7,18],[1,30],[4,15],[8,-4],[16,-44],[6,-34],[5,-9],[2,-18],[10,-7],[8,-14],[5,6],[7,-18],[4,-3],[8,-20],[4,-26],[16,-32],[2,16],[-5,11],[1,28],[6,32],[0,18],[-6,22],[4,2],[8,14],[8,1],[8,15],[10,5],[5,-13],[10,-3],[4,7],[9,-2],[4,-8],[5,23],[5,13],[6,5],[10,-13],[5,8],[15,-16],[-12,17],[-3,0],[-7,-5],[-5,10],[-13,1],[-10,-12],[-12,-3],[-7,7],[-18,6],[-3,14],[4,20],[2,36],[8,64],[0,40],[-6,-8],[-16,6],[-5,9],[-8,24],[-4,27],[-3,55],[-3,39],[1,17],[-3,22],[-3,61],[1,24],[-3,22],[-6,11],[-3,25],[-5,15],[-12,2],[-14,-22],[-2,15],[6,16],[2,17],[-5,58],[-3,14],[5,14],[2,43],[-15,32],[-7,-6],[-8,24],[5,28],[10,26],[13,20],[-12,31],[-8,59],[-20,51],[2,61],[-22,2],[-46,26],[-23,8],[-8,20],[-16,25],[-13,30],[-2,30],[-16,29],[-4,44]],[[215784,547412],[2,12],[6,15],[6,3],[8,11],[5,-2],[8,18],[13,15],[4,22],[7,19],[14,-11],[6,3],[4,12],[11,9],[4,26],[6,17],[14,31],[13,17],[5,18],[34,140],[7,43],[1,16],[0,55],[3,40],[8,45],[3,25],[1,17],[7,37],[4,28],[5,-1],[-1,-9],[4,-13],[3,-2],[17,20],[9,4]],[[216025,548092],[2,-23],[8,6],[2,-32],[4,-63],[2,-13],[8,-22],[11,-22],[10,-47],[16,-81],[2,-7],[11,-49],[2,-49],[4,-35],[0,-39],[-6,-44],[-5,-28],[0,-18],[2,-19],[5,-19],[4,-26],[-1,-63],[2,-16],[7,-43],[9,-27],[13,-5],[4,-13],[4,-51],[5,-68],[0,-37],[1,-11],[16,-32],[7,-18],[3,-25],[7,-7],[9,17],[12,17],[9,-1],[8,-18],[8,-41],[1,-38],[3,-53],[9,-39],[9,-20],[28,-9],[19,1],[6,-3],[9,-12],[0,3],[5,10],[0,11],[9,10],[8,36],[5,8],[13,57],[4,24],[7,13],[0,35],[5,79],[3,9],[1,1],[0,43],[8,65],[-1,12]],[[216381,547263],[19,-31],[3,-11],[20,-35],[13,16],[18,-128],[3,-47],[7,-45],[90,-700],[33,-186],[2,0],[1,-2],[1,-6],[-1,-3],[-1,-16],[6,-15],[1,-13],[32,-22],[54,-339],[9,-63],[2,-9],[3,-18],[-5,-13],[-1,-2],[41,-159],[6,-19],[17,-66],[5,-20],[26,-99],[3,-14]],[[216788,545198],[-7,-4],[-5,-14],[-8,0],[-6,1],[-3,9],[-1,5],[-7,-19],[-6,-15],[-10,-27],[-1,-12],[10,-26],[4,-9],[4,-23],[0,-6],[1,-4],[-1,-3],[0,-5],[1,-2],[0,-2],[-6,-15],[5,-52],[-4,-21],[-5,-2],[4,-9],[14,-24],[5,0]],[[216766,544919],[0,-6]],[[216766,544913],[-7,-10],[-1,14],[-15,-40],[1,-3],[-5,-13],[-5,11],[-6,32],[-4,-7],[-4,-7],[-1,-1],[0,-3],[1,-5],[-12,-20],[-9,-7],[10,-49],[2,3],[5,-25],[15,21],[3,-23]],[[216734,544781],[-2,-2],[1,-16],[-15,-24],[1,-7],[-25,-11],[6,-51],[-1,-11],[0,-2],[-4,-10],[-20,-24],[4,-37],[10,12],[-5,-15],[-11,-12],[1,-6],[-12,9],[-1,9],[4,22],[-6,3],[-6,36],[-1,8],[-8,-6],[2,-19],[6,-40],[3,-155],[0,24],[17,23],[-1,26],[3,4],[11,-55],[0,1],[1,-2],[13,10],[6,2],[-1,-5],[-2,-70],[-2,-3],[-2,7],[-15,-23],[10,26],[1,10],[-14,29],[-9,-1],[-28,-25],[-6,-5],[-5,-4],[-12,-10],[0,6],[-1,4],[0,3],[-1,16],[3,37],[-3,28],[-5,-8],[0,0],[-1,16],[0,7],[-3,3],[-6,-10],[0,27],[-19,-27],[-11,52],[-1,23],[0,-67],[4,-24],[1,-40],[4,-20],[7,-34],[-5,-9],[-1,-6],[-1,-4],[0,-2],[-29,-26],[-10,-5],[-83,-19],[-10,-7],[-14,-19],[5,-10],[8,-63],[-5,-26],[-7,-3],[-45,-162],[-1,-4],[0,0],[-1,-169],[-53,1],[1,168],[-159,0],[0,107],[-112,-48],[-31,-7],[-541,-234],[0,-24],[-13,18],[-311,-136]],[[215170,543694],[0,163],[0,542]],[[213444,553169],[-5,-52],[8,-30],[7,-43],[7,-24],[5,-23],[-1,-19],[1,-37],[-1,-35],[7,-28],[-1,-44],[-4,-18],[1,-24],[-5,-27],[-4,6],[-5,-6],[-8,5],[-4,-28]],[[218173,538672],[22,10],[-2,-40],[0,-51],[1,-45],[0,-46],[0,-53],[2,-28],[-2,-3],[1,-26],[3,6],[2,-8],[-6,-12],[-5,-48],[17,0],[1,-46],[0,-54],[-3,-18],[-12,-36],[-1,-7],[7,-11],[9,-1],[0,-77],[-7,4],[-19,23],[-2,-14],[-4,-17],[9,-21],[6,-27],[-8,-17],[7,-19],[0,-2]],[[218189,537988],[-2,5],[-20,48],[-15,34],[-27,62]],[[218125,538137],[10,43],[7,39],[1,39],[-1,30],[0,76],[0,64],[2,19],[4,47],[6,20],[3,-9],[3,-4],[2,20],[-2,15],[8,35],[1,9],[0,17],[0,15],[-5,55],[7,3],[2,2]],[[217945,539003],[7,8],[17,57],[15,1],[0,-38],[6,0],[0,-29],[49,3],[5,2],[9,23],[3,75],[2,11],[44,118],[12,-43],[12,-9],[7,1],[2,-11],[16,-3],[38,3]],[[218189,539172],[-19,-4]],[[218170,539168],[-45,-2],[-10,-5],[-13,-22],[-18,-50],[-11,-36],[-6,-15]],[[218067,539038],[-7,-20],[-16,-38],[-14,-36],[-8,-14],[-9,-6],[-22,-3],[-45,-4],[-4,4],[0,0]],[[217942,538921],[-1,60],[-1,5],[2,9],[3,4],[0,4]],[[213444,553169],[6,-23],[8,-11],[7,-20],[14,-28],[19,-2],[12,-9],[16,21],[3,14],[6,-4],[10,2],[10,-16],[15,-3],[6,9],[7,18],[9,17],[21,-2],[8,5],[5,-8],[8,32],[5,0],[6,10],[8,1],[9,16],[8,39],[7,7],[1,16],[8,12],[11,12],[7,13],[3,-11],[7,19],[8,-6],[7,3],[9,20],[7,0],[7,-10],[6,0],[8,14],[6,-3],[9,15],[16,-1],[6,6],[4,16],[5,-2],[3,17],[6,-5],[13,10],[8,-8],[3,-13],[5,4],[2,-10],[5,3],[5,-1],[0,-19],[5,-4],[4,-16],[5,-8],[9,-35],[8,-9],[10,-29],[11,5],[8,15],[9,-9],[7,17],[5,-1],[7,15],[0,10],[14,11],[0,20],[3,-6],[13,1],[6,22],[8,-14],[7,2],[6,29],[8,16],[8,31],[5,-3],[3,-24],[12,3],[7,10],[5,-7],[14,-1],[7,7],[29,5],[7,-23],[6,-2],[0,-12],[8,2],[5,-15],[1,-14],[8,-11],[4,2],[2,-23],[4,-6],[10,-2],[4,-14],[7,0],[-4,-17],[4,-18],[6,-12],[5,-26],[10,7],[9,-27],[7,-3],[6,11],[3,-10],[8,-7],[5,-24],[4,-13],[5,0],[7,-21],[10,3],[22,14],[6,-8],[10,8],[10,-9],[9,9],[4,15],[9,3]],[[214326,553135],[10,-13],[-8,-47],[-3,-27],[-10,-41],[-2,-25],[-7,-19],[-4,-43],[-10,-15],[-7,-17],[-9,-32],[-2,-16],[-15,-31],[-7,-24],[0,-32],[3,-10],[6,-2],[5,-11],[6,-1],[13,-15],[3,-19],[-5,-1],[0,-20],[6,-53],[13,-27],[-1,-66],[-2,-14],[0,-35],[3,-24],[25,-38],[22,10],[14,-10],[13,-33],[23,-23],[18,-9],[17,-26],[-8,-18],[0,-15],[-5,-7],[-5,-23],[-3,-43],[8,-7],[12,16],[9,31],[14,10],[5,8],[5,21],[3,-22],[5,-19],[12,9],[11,26],[13,4],[8,11],[6,20],[5,2],[21,-45],[3,-10],[3,-46],[31,0],[5,-6],[-16,-92],[-4,-50],[-6,-17],[-6,-6],[1,-6],[23,-89],[18,-15],[8,-1],[72,-33],[27,-28],[52,-42],[8,-2],[27,9],[10,5],[23,5],[69,-9],[14,3],[29,-22],[12,-11],[8,-21],[5,-19],[0,-36],[5,-25],[13,-31],[4,-25],[4,-18],[-2,-18],[2,-43]],[[214992,551586],[-7,-9],[-13,-2],[-14,-15],[-8,-4],[-19,2],[-5,4],[-11,2],[-14,12],[-5,-4],[-15,11],[-14,-6],[-6,-8],[-2,-4],[22,-19],[-9,-46],[-5,-13],[-8,3],[0,-23],[-11,-10],[-3,-25],[-5,-9],[-5,-1],[-1,-9],[-7,0],[-7,-8],[-18,8],[-4,-2],[-12,-26],[-3,-3],[-4,-16],[1,-16],[19,-31],[16,-32],[8,-19],[3,-20],[-1,-33],[10,-38],[14,-13],[5,3],[8,-14],[13,-10],[12,4],[9,-14],[6,4],[8,-23],[12,-5],[17,-23],[24,-18],[14,-1],[12,-7],[10,-30],[13,-8],[10,0],[12,-7],[14,3],[12,-20],[12,-3],[9,-15],[-3,-27],[-4,-10],[0,-99],[22,-2],[-1,-77],[-8,5],[-2,25],[-20,18],[-21,-22],[-6,19],[-8,4],[-8,-5],[-7,9],[-12,-1],[-11,32],[-6,-1],[-17,-24],[-12,14],[-12,10],[-5,23],[-3,-1],[-5,-11],[-8,3],[-5,-9],[-7,-25],[-7,-10],[3,-10],[-3,-49],[3,-3],[4,-24],[-4,-27],[5,-13],[3,-62],[7,-10],[5,-20],[12,-10],[6,-17],[6,-43],[15,-6],[10,-20],[11,15],[17,-6],[12,-10],[12,13],[7,-4],[19,-28],[27,-7],[10,3],[0,-57],[-4,-1],[3,-43],[-4,-442],[7,6],[8,-22],[10,-3],[2,-9],[24,-17],[7,8],[22,-10]],[[215167,549890],[-1,-1805]],[[215166,548085],[-512,1],[-445,0]],[[214209,548086],[-336,200],[-18,37],[-18,20],[-12,-1],[-7,21],[-8,4],[8,23],[8,39],[1,29],[-6,23],[-1,38],[12,46],[2,12],[-7,23],[2,43],[8,26],[4,52],[5,14],[-1,50],[5,25],[-1,41],[1,32],[-4,25],[-5,16],[-4,35],[3,22],[-3,58],[3,22],[0,36],[13,34],[1,10],[10,19],[-1,43],[5,27],[-2,26],[-3,20],[1,32],[-2,47],[6,23],[-1,46],[11,17],[0,15],[-2,37],[-8,9],[-2,22],[-9,51],[-3,36],[2,42],[2,26],[6,21],[1,36],[-6,17],[4,36],[7,43],[-6,52],[0,12],[11,25],[-7,15],[-3,95],[-6,27],[-2,50],[-9,11],[-4,14],[-5,1],[-10,25],[-14,3],[-4,12],[-4,29],[-9,20],[-3,20],[-2,30],[-4,20],[-3,39],[0,14],[-9,11],[3,40],[-9,22],[0,13],[4,31],[-1,28],[7,115],[5,42],[-14,26],[0,40],[-9,37],[-2,36],[-9,39],[-7,43],[-3,31],[-10,21],[-5,5],[-6,16],[-12,4],[-6,28],[-5,9],[-1,22],[2,16],[-1,17],[1,27],[-2,44],[-6,69],[3,19],[0,21],[-5,14],[-5,0],[6,26],[0,15],[-4,55],[4,78],[-5,9],[4,30],[-9,41],[14,38],[3,40],[7,24],[4,28],[7,9],[1,18],[4,6],[2,11],[-2,20],[3,20],[-6,22],[3,30],[-4,24],[-7,35],[-1,20],[-8,28],[-7,10],[-3,13],[2,31],[-2,48],[9,12],[8,27],[-3,14],[-9,99],[-6,20],[-14,5],[-7,-25],[-7,-3],[-21,-27],[-8,19],[-14,56],[-7,39],[-2,6],[-6,10],[-9,6],[-6,-5],[-7,-17],[-7,-4],[-9,6],[-16,33],[-2,16],[-13,14],[-11,6],[-2,23],[3,46],[-5,20],[1,20],[-4,13],[-6,-8],[-14,3],[1,29],[-3,22],[4,10],[-6,21],[-3,20],[1,45],[-1,12],[-7,2],[-7,42],[-7,31],[-11,24],[-7,29],[-1,18],[-10,29],[3,23]],[[217294,545926],[1,12],[-3,41],[0,56],[0,192],[0,504]],[[217292,546731],[51,3],[-1,-469],[51,3],[0,-126],[1,-88],[-33,-41],[5,-6],[11,-25],[5,-21],[-89,-48],[-2,-3],[3,16]],[[219736,552431],[-2,16],[3,10],[0,13],[6,4],[6,26],[6,5],[6,-4],[9,19],[8,0],[11,13],[8,5],[12,-7],[5,3],[14,-9],[9,9],[12,23],[8,4],[5,27],[5,15],[5,24],[8,31],[10,26],[1,30],[0,16],[1,6]],[[219939,548424],[-3,-23],[-6,-28],[-6,-15],[-4,-15],[-10,-23],[-4,-27],[-5,0],[-3,-22],[-9,-26],[-15,-16],[-13,-6],[-6,-27],[-13,-42],[-2,-14],[-10,-19],[-12,-8],[-9,4],[-9,15],[-9,3],[-17,-2],[-24,-16],[-13,-37],[-126,4],[0,493],[0,432],[-6,20],[-3,-55],[-10,42],[-5,47],[3,13],[-5,18],[-5,33],[4,19],[0,23],[4,4],[-4,39],[4,26],[-6,1],[-7,11],[-6,3],[3,21],[-9,6],[-1,22],[-6,1],[-4,14],[5,14],[6,38],[7,2],[-1,1]],[[214479,556416],[4,-6],[10,-2],[4,-16],[5,-5],[10,-14],[10,-2],[6,5],[4,28],[11,38],[10,16],[5,2],[11,32],[13,43],[7,33],[1,12],[13,53],[11,6],[26,36],[25,37],[8,14],[11,13],[14,6],[7,9],[8,17],[13,10],[14,21],[19,19],[7,4],[5,-2],[49,-59],[30,-67],[7,-20],[110,-364],[3,0],[24,17],[39,5],[14,-11],[39,-35],[15,-5],[10,-9],[16,5],[6,19],[8,-12],[11,-3],[18,-14],[17,-11],[4,-11],[-1,44],[2,60],[0,30],[-3,28],[-10,51],[-1,24],[1,21],[5,40],[4,-7],[7,-20],[117,-14]],[[215312,556505],[-3,-43],[-1,-30],[-9,-13],[-2,-19],[-4,-10],[3,-27],[13,-17],[-5,-14],[-1,-26],[-1,-55],[-3,-18],[2,-12],[-2,-69],[-2,-16],[-6,-14],[6,-6],[-3,-33],[6,-12],[-5,-16],[0,-33],[-37,-49],[-8,-1],[-4,7],[-11,48],[-20,67],[-4,30],[-4,-10],[-5,-10],[1,-41],[21,-177],[27,-227],[3,-1],[17,-23],[29,-336],[6,-30],[11,-53],[1,-18],[-4,-49],[6,-115],[18,-169],[13,-122],[6,-108],[0,-18],[-4,-22],[-12,-34],[3,-5],[9,-18],[7,-7],[2,-5],[17,0],[18,10],[1,7],[3,3],[1,-5],[1,4],[3,-1],[14,4],[0,29],[6,32],[11,49],[9,80],[6,11],[-5,53],[-6,14],[2,3],[9,-10],[9,50],[8,41],[-9,-11],[-6,18],[-2,17],[13,23],[5,12],[-1,9],[-18,15],[-8,19],[-2,19],[18,-7],[12,8],[-6,29],[-1,23],[-5,7],[-4,23],[2,13],[-5,12],[-7,3],[-3,17],[-16,3],[-2,18],[-17,14],[-10,-3],[2,19],[-4,11],[6,2],[-6,18],[1,17],[18,-8],[9,11],[-5,19],[6,-6],[3,8],[12,-19],[8,24],[8,-15],[-1,23],[4,11],[-2,22],[-6,17],[-6,-5],[-9,6],[-3,18],[3,6],[8,-8],[0,8],[10,-3],[2,7],[-5,5],[5,18],[-8,16],[2,13],[9,1],[0,38],[4,-16],[3,-20],[8,-29],[8,14],[7,19],[-1,18],[4,6],[7,-10],[2,8],[-6,23],[-7,9],[-8,21],[9,-1],[4,-18],[6,-1],[7,-14],[7,2],[-5,4],[9,4],[-4,18],[-10,12],[7,12],[-4,19],[5,8],[-3,25],[1,18],[-7,-12],[-11,-13],[-10,4],[-6,22],[1,12],[11,-7],[-1,29],[5,-9],[5,8],[-9,24],[12,-11],[4,2],[2,13],[-4,8],[3,17],[8,-5],[-2,10],[0,21],[7,5],[-10,31],[-7,15],[-2,12],[13,5],[5,-8],[9,3],[5,-5],[2,8],[1,54],[-14,24],[-12,9],[-1,8],[14,7],[7,-3],[4,26],[-4,11],[14,15],[-8,7],[-6,12],[-13,18],[5,3],[-2,9],[15,-9],[3,18],[-10,7],[5,21],[-9,7],[-3,11],[12,4],[6,7],[0,12],[-11,8],[-12,18],[17,-3],[6,10],[-5,9],[5,2],[-4,12],[5,10],[-7,0],[9,10],[6,16],[-7,-3],[7,13],[2,14],[-1,10],[-16,-6],[6,8],[-12,-2],[-4,-11],[-9,11],[-8,-3],[-5,6],[-7,-17],[4,19],[-4,4],[-11,-15],[-3,16],[-7,9],[-7,-5],[-10,10],[-3,24],[-9,15],[6,4],[-6,16],[2,14],[6,10],[10,8],[6,20],[11,7],[8,11],[8,-5],[13,1],[8,26],[0,18],[-15,29],[-4,2],[-8,22],[0,19],[-4,18]],[[215481,556452],[-2,39],[1,22],[-3,6],[-1,24],[6,-5],[-5,28],[-7,-3],[-14,14],[1,10],[11,0],[8,25],[-13,15],[1,10],[10,4],[4,21],[-6,2],[0,26],[9,-1],[0,19],[6,-1],[-8,13],[-9,37],[4,7],[16,-3],[14,-21],[-6,19],[4,12],[10,-5],[7,-17],[8,7],[7,-5],[0,11],[-7,0],[-1,9],[6,-4],[2,11],[-3,18],[-9,15],[-1,17],[4,-4],[7,-20],[4,8],[1,-24],[7,-10],[5,14],[-3,11],[5,-1],[3,13],[-4,9],[0,23],[4,-18],[3,43],[-2,18],[-3,3],[-4,-13],[3,34],[-4,56],[-15,-14],[-2,-20],[-2,10],[-7,-11],[-8,3],[6,4],[5,20],[-7,-4],[-3,21],[3,-8],[13,1],[11,12],[1,10],[-3,26],[-6,-12],[-5,5],[-7,16],[-6,1],[-1,15],[17,-18],[7,16],[5,-8],[1,14],[-5,16],[7,-7],[2,-26],[10,1],[13,15],[4,17],[2,30],[-12,2],[-3,20],[4,-9],[15,16],[-3,11],[-6,0],[9,16],[-1,7],[-8,19],[0,18],[3,-4],[3,39],[-5,32],[0,21],[-2,35],[-6,23],[6,-2],[-1,25],[5,-2],[1,-15],[6,-13],[2,22],[-5,2],[2,18],[-2,8],[-13,-6],[-8,-19],[-11,13],[-4,-13],[-6,3],[-3,13],[0,21],[14,16],[-6,6],[-1,26],[7,2],[4,-15],[8,-1],[10,-17],[10,22],[-6,2],[3,9],[-4,22],[-8,-15],[-3,48],[5,-4],[-6,19],[-16,24],[9,-5],[4,28],[-11,10],[7,30],[6,2],[-9,6],[-10,18],[1,9],[12,-2],[-7,33],[-9,15],[17,6],[-1,21],[3,1],[5,25],[-5,29],[8,1],[5,-10],[6,1],[5,11],[9,1],[2,-16],[3,2],[-1,24],[-14,3],[10,17],[-2,28],[3,4],[7,-11],[-10,46],[5,24],[3,1],[11,-20],[-1,29],[5,-4],[-1,13],[3,20],[-6,8],[5,6],[-9,25],[4,4],[6,-11],[0,24],[-4,19],[-8,2],[-2,11],[7,0],[-3,22],[-7,15],[11,-2],[-5,19],[-8,11],[3,4],[-5,23],[2,37],[-1,17],[6,17],[3,34],[10,-10],[8,17],[11,45]],[[215631,558267],[330,-8]],[[215961,558259],[-25,-962],[32,-511],[13,-218],[22,0],[8,-10],[38,-56],[12,-20],[28,-133],[15,61],[4,33],[7,-77],[14,7],[40,32],[27,25],[19,24],[20,18],[24,34],[16,18],[20,26],[17,13],[18,-16],[7,11],[-1,17],[7,25],[17,20],[32,48],[12,12],[5,11],[9,8],[47,67],[27,44],[16,17],[17,26],[16,33],[-2,26],[0,39],[2,32],[-2,25],[19,-6],[6,-16],[15,27],[4,21],[20,24],[26,27],[0,11],[8,1],[5,15],[1,47],[4,53],[0,25],[0,13],[-13,91],[69,-26],[7,-59],[3,-16],[5,1],[3,17],[4,48],[1,40],[3,17],[6,23],[4,33],[0,30],[4,53],[3,13],[9,19],[5,2],[19,-2],[-3,-41],[2,-36],[7,-63],[11,-45],[9,-44],[2,-18],[12,-69],[10,-92],[1,-29],[11,-90],[4,-44],[11,-27],[5,-28],[3,-6],[9,2],[15,-48],[19,0],[1,-56],[29,35],[25,69],[20,62],[41,25],[12,5],[31,34],[37,35],[10,4],[27,3],[1,29],[25,-96],[4,-46],[5,-16],[-4,-49],[1,-26],[-2,-57],[-3,-38],[1,-47],[-6,-66],[-14,-77],[-7,-72],[-10,-77],[-8,-60],[-2,-68],[0,-147],[-6,-70],[-9,-47],[-4,-45],[-9,-40],[-6,-39],[-51,-73],[-4,0],[-17,34],[-8,1],[-23,30],[-16,-5],[-11,5],[-3,-7],[-2,-17],[3,-41],[-2,-27],[3,-14],[0,-17],[-5,-17],[-3,-34],[0,-36],[4,-41],[-3,-85],[2,-42],[-1,-26],[-4,-31],[-1,-22],[-1,-81],[13,-66],[14,-38],[4,-17],[15,-52],[6,-36],[8,-32],[5,-39],[6,-11],[8,-31],[1,-36],[5,-42],[2,-8],[10,-8],[13,-23],[7,-17],[2,-15],[10,-26],[4,-23],[6,-17],[16,-5],[5,-5],[11,-28],[13,-25],[13,-16],[0,-11],[-11,-20],[-14,-5],[-8,-13],[-12,-46],[-8,1],[-8,-16],[-6,-27],[-1,-18],[-6,-16],[-13,-1],[-20,-66],[-18,3],[-7,-5],[-6,8],[-4,-9],[-5,-72],[-9,-20],[-2,-19],[4,-12],[4,-26],[-12,-54],[-8,-24],[1,-13],[-5,-6],[-7,-32],[-1,-18],[-3,-46],[0,-25],[-3,-36],[4,-66],[-4,-36],[-5,-6],[-5,-33],[10,-9],[9,-16],[7,-35],[10,-56],[0,-23],[6,-43],[1,-25],[3,-31],[7,-27],[1,-22],[0,-61],[1,-21],[-2,-7],[3,-19],[18,40],[9,33],[11,29],[5,9],[6,30],[4,-2],[9,16],[2,10],[8,-2],[6,22],[8,4],[13,28],[5,18],[10,16],[6,19],[21,14],[12,15],[19,-6],[14,16],[9,29],[18,44],[22,65],[8,42],[4,57],[-1,12],[4,29],[7,-5],[23,9],[16,-26],[2,-18],[6,-21],[8,-36],[7,-17],[12,-11],[16,13],[10,-5],[17,12],[12,-13],[9,7],[136,-227],[-13,-81],[-5,-32],[3,-678],[43,-220],[2,-426],[-656,-1037],[0,54],[-2,16],[-8,117],[0,100],[-26,0],[2,508],[0,677],[27,0],[-1,50],[-3,-6],[-16,-10],[-10,0],[-2,-12],[-17,-31],[-6,-30],[-6,-24],[-15,-73],[-5,-9],[-12,83],[-5,22],[-31,184],[11,47],[8,58],[13,74],[8,58],[8,45],[2,36],[-7,28],[1,29],[-4,59],[0,34],[-6,21],[-1,15],[5,22],[7,23],[3,37],[4,12],[6,42],[6,25],[-5,-2],[-21,27],[-20,31],[-11,26],[-14,5],[-7,10],[-21,43],[-13,15],[-24,-2],[-21,1],[-23,22],[-20,27],[-14,-14],[-9,-2],[-13,6],[-6,12],[-47,10],[-13,-9],[-18,-39],[-19,-29],[-17,-20],[-17,3],[-14,-28],[-17,-27],[-21,-58],[-16,-34],[-18,-2],[-22,4],[-8,-2],[-39,492],[-24,-4],[-21,1],[-18,-3],[-15,1],[-9,-12],[-81,-7],[-12,-13],[0,-9],[24,-423],[25,-430],[0,-9],[6,-83],[36,-636],[13,-15],[7,2],[5,-13],[20,20],[10,5],[13,-4],[1,-296],[25,-19],[0,-214],[0,-20],[-3,-11],[16,-13],[8,-33],[19,-56],[3,-36],[7,-42],[10,-43],[12,-83],[2,-21],[-32,39],[-18,19],[-17,3],[-7,-1],[-19,-20],[-7,39],[-3,40],[-1,44],[-2,41],[-4,24],[-29,1],[-32,-156],[-113,-249],[-1,-16],[-5,-3],[1,78],[-2,36],[1,83],[-1,34],[-22,372],[-3,74],[-2,187],[6,336],[-10,-7],[-21,-7],[-9,16],[-5,1],[-23,-38],[-21,-21],[-22,38],[-13,12],[-21,-11],[-21,-5],[-2,4],[-4,33],[-4,22],[-7,3],[-13,-29],[-11,-14],[-7,-3],[-22,-24],[-22,-7],[-4,-14],[-8,-4],[-26,-44],[-15,-47],[-5,0],[-8,63],[-8,54],[-12,-112],[-1,-29],[-15,17],[-26,10],[-4,4],[-21,31],[-1,17],[-12,34],[-17,62],[-9,19],[-1,-4],[-21,-9],[-12,-15],[-8,-24],[0,-16],[-8,-40],[-6,-10],[-16,-3],[-16,-17],[-10,-27],[-12,-8],[-4,3],[-10,-15],[-24,-7],[-16,15],[-7,0],[-11,22],[-2,-11],[-7,-19],[-5,-3],[-9,21],[-5,-16],[-8,11],[9,-32],[-8,-6],[-4,10],[0,-11],[5,-14],[9,-12],[-2,-26],[-3,-17],[-8,11],[-9,-13],[6,-25],[11,-30],[12,-50],[7,-52],[-2,-45],[3,-15],[1,-52],[-5,-16],[0,-20]],[[215425,552021],[-4,-1],[-2,-29],[-3,-5],[-9,-50],[-8,-22],[-30,-71],[-35,-32],[11,25],[0,31],[-4,21],[4,16],[-1,18],[2,13],[-2,6],[-11,-9],[-6,3],[-10,19],[-6,-13],[-8,-6],[-5,-17],[1,-8],[-7,-11],[-4,-11],[-2,-25],[-9,-19],[2,-8],[-9,-32],[-1,-17],[-14,-20],[-11,-7],[-18,-7],[3,-7],[-7,-9],[-11,-24],[-1,-14],[5,-7],[-5,-5],[-6,-26],[16,-34],[1,-15],[-3,-21],[2,-37],[-1,-23],[-2,-7],[5,-17],[-2,-4],[-13,6],[-6,6],[-8,-5],[0,-25],[-8,-5],[-1,4],[-4,29],[-5,54],[-1,23],[-1,160],[1,67],[2,46],[2,51],[4,71],[1,73],[-1,35],[-4,52],[-1,42],[1,34],[1,35],[7,69],[19,151],[4,31],[4,51],[1,30],[0,33],[-3,69],[2,77],[6,114],[7,155],[7,98],[3,35],[-3,-6],[2,63],[-2,43],[3,12],[1,14],[-6,18]],[[215231,553313],[1,37],[-3,38],[7,23],[8,63],[0,27],[-2,22],[-5,21],[-13,-1],[-18,19],[-11,2],[-4,14],[-7,51],[0,24],[8,39],[9,15],[10,9],[11,50],[7,77],[0,10],[-8,24],[-7,-8],[-26,3],[-3,8],[-1,13],[-10,37],[-1,51],[2,14],[9,13],[12,12],[18,-5],[0,11],[-5,1],[-4,6],[0,28],[1,15],[-9,-15],[-5,0],[-9,0],[-1,15],[0,27],[6,0],[-2,10],[-2,11],[-4,-7],[-4,-14],[-1,-8],[-3,-18],[-1,-17],[-2,-45],[-1,-15],[-6,-63],[-6,-58],[-7,-64],[-16,8],[-20,1],[-19,10],[-6,7],[-19,5],[-10,34],[-5,18],[-11,16],[-2,9],[-3,48],[-2,37],[-5,12],[-20,24],[-5,20],[-23,65],[-31,48],[-2,20],[-1,48],[0,28],[-1,76],[-25,42],[-20,38],[-10,22],[-35,60],[-17,36],[-15,53],[-26,102],[-16,44],[-11,43],[-2,13],[-8,89],[-5,25],[-11,21],[-25,44],[-11,-1],[-5,-38],[-4,5],[-1,5],[-1,30],[-2,9],[-1,5],[-1,4],[-1,8],[-4,4],[-3,6],[-3,2],[-2,4],[-4,24],[-6,-1],[1,14],[-8,59],[-5,14],[-5,4],[-5,33],[-8,17],[-10,-4],[-2,-17],[-4,9],[-6,-22],[-4,15],[-14,-9],[-8,-30],[-7,-34],[-3,10],[-6,-9],[-3,-21],[-11,2],[0,-29],[-7,-25],[-1,-21],[-9,-4],[1,-24],[-10,-2],[-1,-22],[-5,-7],[0,-12],[-14,1],[-8,-13],[-4,-14],[-5,0],[-6,-30],[-3,-36],[-5,-15],[-8,15],[-5,-6],[-1,-20],[-5,2],[-5,16],[-4,-3],[-6,-22],[-5,-7]],[[214449,554800],[-2,11],[-7,-7],[-7,34],[-2,22],[-4,19],[6,15],[6,25],[-3,38],[21,10],[10,9],[7,0],[5,10],[0,14],[-5,13],[-7,44],[-7,28],[6,37],[-6,13],[-4,40],[-5,13],[-7,31],[-2,19],[-11,58],[-3,53],[3,24],[-2,25],[-7,16],[-2,15],[-2,30],[-7,27],[-6,14],[-6,42],[0,36],[3,54],[0,50],[-8,37],[-8,27],[1,28],[6,27],[1,18],[-5,2],[6,33],[-3,12],[-4,36],[-10,19],[-6,23],[0,12],[5,52],[5,23],[8,6],[-3,39],[-6,10],[1,38],[9,27],[6,55],[-3,45],[0,40],[-6,3],[-3,11],[-10,15],[-4,0],[-6,20],[8,16],[17,0],[6,46],[-2,32],[5,3],[4,-10],[20,-22],[16,-28],[13,13],[15,2],[2,14],[10,10]],[[216238,543943],[7,24],[7,16],[14,-4],[0,-69],[-22,-7],[-4,9],[-2,31]],[[219954,538052],[0,13],[0,25]],[[218047,540173],[-42,-246],[-13,-80],[-1,-4]],[[217991,539843],[-28,-164],[-26,-159],[-3,-14]],[[217934,539506],[-25,1],[-7,0],[-18,-2],[-14,-1],[-2,0],[-20,-1],[-19,-1],[-2,0]],[[217827,539502],[0,43],[-1,291],[3,0],[-1,89],[0,49],[0,32],[0,58],[0,10],[2,23],[3,19],[1,1],[5,17],[15,28],[28,52],[6,-23],[8,-7],[18,2],[0,2],[11,0],[7,6],[0,-7],[43,1],[7,-1],[6,0],[3,-1],[35,1],[3,0],[9,0],[5,-9],[4,-5]],[[218047,540173],[18,111],[65,382],[63,374]],[[218193,541040],[0,0],[1,0]],[[218194,541040],[30,0],[141,2],[2,-1702],[104,0],[0,-180],[-30,1],[-1,-77],[118,-1],[3,2],[-1,-85],[15,0],[0,354],[-2,323],[3,0],[1,35],[258,5],[7,16],[2,1],[23,0],[6,-2],[4,3],[8,22],[2,704],[-3,172],[1,107],[11,13],[23,14],[28,0],[24,6],[6,-7],[9,2],[-15,64],[-4,23],[-15,67],[-8,66],[-5,63],[100,0],[163,-1],[1,-26],[2,-736],[4,6],[2,14],[4,1],[0,11],[8,6],[6,28],[-1,23],[2,20],[4,-1],[4,16],[0,12],[-6,19],[-2,16],[-6,63],[5,-9],[2,-14],[10,-2],[3,4],[3,33],[-3,7],[4,10],[7,6],[4,12],[5,34],[4,6],[9,-2],[5,-17],[9,-6],[4,29],[6,9],[-2,21],[6,-2],[16,-34],[16,-60],[-6,-17],[7,-99],[-3,-18],[0,-18],[-3,-10],[5,-15],[8,-7],[4,-28],[3,20],[4,-4],[17,-16],[18,137],[9,50],[14,38],[35,24],[18,9],[11,-1],[43,9],[9,-2],[32,5],[-5,-53],[4,-65],[0,-39],[2,-13],[11,-56],[1,-31],[-3,-39],[0,-37],[4,-45],[0,-34],[3,-67],[0,-36],[7,-2],[2,-9],[11,0],[13,3],[13,-10],[10,-13],[16,-13],[7,-8],[7,-23],[6,-31],[1,-47],[2,-30],[-3,-64],[-3,-36],[18,49],[6,7],[9,-1],[9,10],[3,28],[-4,31],[7,13],[4,-6],[15,-12],[12,-2],[27,-19],[16,-3],[30,6],[14,-4],[-3,-20],[-16,-48],[-3,-19],[0,-16],[7,-42],[-3,-14],[3,-8],[-2,-40],[2,-45],[3,-1],[35,36],[7,17],[7,-1],[23,-17],[12,6],[13,16],[24,15],[17,14],[10,-29],[13,-20],[6,-19],[23,-45],[13,-24],[6,-2],[16,23],[1,20],[11,28],[10,12],[11,26],[12,6],[20,33],[3,12],[11,21],[10,-1],[0,13],[5,8],[26,38],[15,23],[13,10],[15,16],[16,9],[4,5],[13,25],[9,6],[-2,-27],[-48,-412],[-18,-119],[-7,-51],[-7,-31],[-25,-84],[-26,36],[-17,18],[-12,8],[-32,11],[-12,6],[-8,7],[-13,-3],[-5,-16],[-7,11],[-39,45],[-10,7],[-2,34],[-11,-6],[-12,-18],[-11,-8],[-8,1],[-9,25],[-10,17],[-7,5],[-4,-14],[-6,12],[-16,6],[-3,9],[-10,36],[-4,38],[-6,27],[-9,14],[-10,1],[-13,9],[-6,0],[-9,13],[-10,24],[-16,3],[-6,-3],[1,-62],[5,-93],[4,-57],[8,-81],[-2,-15],[1,-16],[6,0],[-46,-17],[-16,-1],[-6,-3],[-15,-31],[1,-46],[-4,-14],[-8,-45],[1,-19],[2,-3],[74,-40],[29,-18],[0,-76],[-4,-77],[-9,-54],[-17,-77],[-10,-66],[-4,-19],[-5,-31],[-7,-34],[-14,-57],[-5,-10],[-3,-23],[-12,-44],[3,-18],[4,-13],[5,-23],[7,-63],[11,-31],[5,-52],[7,-7],[10,-17],[17,7],[4,-8],[7,4],[11,-12],[2,6],[5,40],[5,20],[12,9],[10,-16],[5,-24],[7,-6],[18,-9],[22,-29],[16,-35],[9,-13],[16,4],[13,0],[10,-51],[2,-5]],[[219954,538052],[-432,65],[-10,20],[-11,5],[-4,14],[-3,39],[-3,15],[-6,17],[-14,10],[-6,29],[-13,16],[2,21],[-31,105],[-7,8],[-18,31],[-6,0],[-9,11],[-11,23],[-9,9],[-13,-19],[-9,0],[-17,6],[-4,-2],[-6,20],[-5,8],[-7,27],[-6,3],[-3,20],[-6,4],[-7,20],[-7,-3],[-18,26],[43,-87],[21,-55],[26,-80],[13,-37],[16,-51],[52,-152],[0,-17],[-13,-82],[0,-61],[3,-87],[4,-81],[13,-147],[-3,-106],[13,-41],[7,-11],[2,-23],[4,-16],[7,-2],[13,-19],[5,-17],[13,13],[8,-10],[5,9],[1,15],[9,11],[1,12],[7,4],[7,-12],[13,-57],[3,-43],[-10,-107],[-15,-44],[-12,-22],[-145,121],[-14,8],[-65,65],[-75,137]],[[219212,537528],[-2,557],[-1,22],[-1,393],[-525,1],[-103,-1],[-2,0],[-1,-5],[0,-84],[0,-79],[1,-213],[-11,25],[-8,14],[-13,6],[-21,0],[0,9],[-2,-7],[-41,0],[-3,-2],[-55,1],[-2,0],[-3,19],[0,48],[-16,-1],[-7,2],[-29,-1]],[[218367,538232],[0,17],[-1,97],[1,68],[-1,88],[0,26],[0,72],[-1,67],[1,97],[0,13],[-2,50],[0,42],[-2,19],[-6,22],[-6,9],[-39,47],[-105,128],[-6,13],[-2,8],[-8,57]],[[218190,539172],[-17,102],[-31,190]],[[218142,539464],[-18,117],[-32,208],[-8,25],[-6,13],[-4,8],[-13,10],[-51,0],[-19,-2]],[[215481,556452],[-6,-21],[-5,-24],[-22,23],[-18,10],[-4,-1],[-8,18],[-9,7],[-9,21],[-12,0],[-7,3],[-21,19],[-11,-7],[-37,5]],[[215231,553313],[-5,-2],[-16,24],[-3,-1],[-8,8],[-1,-50],[-27,0],[-3,3],[0,-28],[-2,-28],[-11,11],[-13,-3],[-7,17],[-7,-104],[-20,-442],[0,-32],[4,-59],[8,-76],[-15,19],[-34,65],[-16,15],[-11,-5],[-11,-32],[-4,-5],[-15,10],[-16,27],[-15,-9],[-4,7],[-9,1],[-8,-6],[-14,11],[-8,-4],[-8,15],[-10,8],[-1,22],[-9,17],[-19,-12],[-7,3],[-13,31],[-6,10],[-11,-2],[-16,9],[-18,47],[-11,-2],[-5,28],[-10,14],[-7,-11],[-5,4],[-12,43],[-5,0],[-8,17],[-7,7],[-2,19],[-4,11],[-11,-13],[-6,11],[-7,1],[-2,32],[-7,-15],[-23,19],[-12,16],[-4,22],[-7,0],[-3,-25],[3,-3],[-6,-8],[-6,-29],[-9,20],[-24,40],[-11,30],[-2,20],[-25,59],[-13,41],[-12,33],[-31,51],[-5,5],[-8,32],[-4,27],[-9,18],[-10,8],[-17,-6],[-17,49],[-7,27],[2,40],[-9,-10]],[[214444,553415],[-5,7],[-7,56],[-7,18],[-7,39],[-5,5],[-6,27],[-4,33],[-9,23],[5,63],[-1,6],[-7,14],[-5,19],[-8,8],[-11,-3],[-6,8],[-8,15],[-6,63],[-8,14],[-3,22],[0,24],[2,41],[3,16],[3,46],[4,35],[3,62],[3,22],[1,34],[6,32],[3,26],[1,25],[4,20],[12,35],[16,21],[3,-2],[15,20],[8,3],[4,9],[-8,48],[2,27],[-6,22],[2,188],[16,54],[7,38],[1,24],[-5,17],[0,13],[7,19],[0,19],[6,10]],[[214444,553415],[-2,-6],[-21,-13],[-15,-28],[-10,11],[-5,-33],[2,-43],[-3,-4],[-8,-27],[-1,-12],[4,-33],[-11,-54],[-13,-3],[-7,-11],[-8,-3],[-12,-20],[-6,3],[-2,-4]],[[216858,544343],[4,2],[16,13],[1,-2],[3,-58],[18,13],[8,6],[3,-35],[-6,-14],[-20,-101],[-4,8],[-4,67],[2,3],[-7,-5],[-4,48],[-7,-5],[-1,18],[3,19],[-4,20],[-1,3]],[[212283,543749],[70,-115],[40,75],[-1,35],[0,89],[2,2],[42,-5],[5,66],[1,262],[-5,50],[-8,10],[0,190],[-1,19],[-5,37],[-8,110],[1,197],[8,26],[12,2],[6,6],[-3,89],[-1,80],[-1,495],[-2,82],[3,84],[-1,26],[-2,65],[-1,36],[-1,60],[2,10],[14,11],[19,6],[10,20],[16,21],[8,7],[9,14],[9,26],[11,39],[12,15],[7,-7],[7,11],[9,27],[12,0],[11,-7],[9,8],[3,-39],[87,-531],[6,4],[2,11],[4,1],[13,15],[27,21],[6,-1],[6,15],[7,4],[12,14],[15,6],[1,-30],[2,-8],[10,-1],[3,-34],[7,-18],[6,-28],[6,-59],[12,-8],[3,9],[2,26],[8,38],[6,-24],[12,-4],[13,12],[8,-20],[10,-8],[12,-15],[7,-26],[59,1],[11,14],[8,1],[9,-5],[11,-82],[1,-47],[3,-33],[0,-42],[24,-33],[-9,-108],[-9,-6],[48,-508],[-55,1],[-22,6],[-21,2],[-7,5],[-17,2],[-31,-2],[-20,12],[6,-8],[15,-14],[13,-34],[20,-33],[12,-26],[16,-25],[5,-30],[5,-38],[7,-37],[4,-16],[-6,-17],[2,-17],[-1,-54],[0,-98],[3,-33],[2,-10],[10,-1],[0,-18],[4,10],[117,-42],[-1,-68],[140,62],[15,6],[31,16],[9,16],[1,8],[-1,26],[-5,37],[0,45],[-4,38],[1,244],[9,64],[-2,20],[-5,24],[-5,33],[1,28],[-3,14],[-4,3],[-7,24],[0,24],[-6,22],[-6,33],[-6,-7],[-4,6],[-1,18],[4,41],[-4,28],[-6,24],[2,32],[5,5],[0,28],[4,29],[-1,15],[-5,25],[-6,44],[-7,26],[-10,-6],[-5,9],[2,0],[3,39],[0,21],[-8,32],[-12,51],[5,32],[13,52],[9,31],[10,31],[6,32],[4,46],[7,49],[-18,186],[-2,13],[-3,54],[-124,425],[-15,68],[-20,58],[-2,-10],[-41,112],[-9,22],[-18,0],[-32,5],[-19,-6],[-42,12],[-10,163],[-8,29],[-55,120],[-16,17],[-82,178],[-7,20],[-47,152]],[[212718,547052],[115,1],[129,3],[30,-1]],[[212992,547055],[141,3],[98,1],[0,708],[-1,95],[3,14],[20,68],[5,-22],[7,9],[14,8],[5,-10],[10,13],[7,20],[11,15],[15,-3],[10,-15],[14,-6],[7,4],[2,12],[12,1],[9,-8],[15,-21],[12,22],[9,8],[4,11],[12,61],[7,11],[13,-6],[10,22],[14,5],[74,3]],[[213551,548078],[642,5],[16,3]],[[215166,548085],[1,-111],[1,-396],[2,-508],[2,0],[-1,-292]],[[215171,546778],[-1,-2379]],[[215170,543694],[0,-103]],[[215170,543591],[0,-588],[-1,-1020],[3,0],[1,-32],[2,-3451]],[[215175,538500],[-389,-2],[-232,0]],[[214554,538498],[0,339],[0,17],[-11,59],[-14,54],[-15,50],[-12,54],[-5,39],[-6,29],[-5,37],[2,51],[-1,18],[2,309],[1,29],[-1,81],[-5,78],[2,46],[0,37],[-2,25],[2,34],[2,72],[-449,-2],[-4,53],[-31,-25],[0,-9],[-13,-3],[-15,-10],[-34,-28],[-1,-53],[-9,-27],[-5,-37],[1,-19],[-20,-7],[-34,75],[-14,36],[0,42],[-3,11],[-3,-2],[-6,-15],[-9,26],[-12,9],[-13,-8],[-9,-11],[-10,-2],[-10,-6],[-6,6],[-11,-2],[-8,16],[-1,-16],[-9,-7],[-18,6],[-3,-5],[-13,22],[-5,0],[-8,12],[-16,-32],[0,-23],[-13,-10],[-6,6],[-11,-10],[-4,16],[-5,-6],[-24,14],[-12,-7],[-14,-10],[-5,-12],[-12,-14],[-21,-45],[-12,-22],[-14,-18],[-2,-1],[-22,44],[-16,-11],[-6,-8],[-49,-100],[-39,-311],[-4,3],[-19,25],[-30,43],[-16,34],[-18,34],[-4,16],[-41,70],[-2,8],[-5,-45],[-7,-44],[-6,-23],[-73,-206],[-29,-22],[-4,-24],[81,-98],[5,-8],[8,-33],[6,-6],[14,5],[17,-23],[0,-98],[4,-14],[27,-102],[6,-33],[15,-66],[1,-212],[87,-1],[4,1],[-2,-16],[-3,-62],[-1,-21]],[[213411,538498],[-1062,0]],[[212349,538498],[-5,431],[-22,-1],[0,510],[0,218],[0,1557]],[[212322,541213],[0,741],[-40,1],[0,601],[0,78],[0,806],[1,309]],[[215170,543591],[171,-161],[5,-4],[260,-255],[6,-7],[8,-4],[111,-87],[-7,-70],[86,2],[70,-60],[239,-213],[5,-6],[5,16],[9,11],[2,12],[-1,29],[8,37],[4,13],[40,158],[12,119],[4,27],[52,154],[5,15],[1,1],[6,7],[125,142],[144,163],[84,-60],[2,-1],[10,18],[5,2],[9,15],[9,5],[4,10],[10,6],[8,-9],[15,0],[8,31],[5,10],[7,3],[4,17],[-6,10],[-13,33],[-19,56],[-6,22],[-4,25],[-9,57],[-3,37],[-1,25],[1,3],[4,11],[10,22],[8,-81],[6,-31],[31,-78],[12,-17],[8,-28],[11,-54],[-1,-31],[1,-11],[2,-4],[29,-46],[28,-33],[34,-51],[0,-30],[12,0],[8,-33],[2,-35],[4,-10],[23,-45],[7,-52],[15,-32],[6,19],[-1,8],[-26,85],[16,33],[-7,22],[13,16],[34,0]],[[216949,543459],[1,0],[14,-86],[18,-105],[-1,0],[24,-148]],[[217005,543120],[-1,0],[3,-23],[-8,-18],[-2,-2],[-6,-16],[-3,0],[0,-75],[0,-78],[-14,0],[0,-18],[5,-20],[29,-30],[6,-13],[4,-17],[5,-44],[2,-82],[4,-13],[34,-92],[13,-40],[3,-14],[13,-87],[2,-9],[3,-13],[25,-69],[8,-19],[12,-70],[1,-6],[2,-8],[2,-4],[2,-7],[8,-25],[4,-24]],[[217161,542184],[0,-50],[-3,-33],[-19,-85],[-2,-29],[-5,-1],[10,-64],[0,-8],[-4,-50],[-3,-54],[2,-25],[-30,-34],[-3,65],[-3,7],[-16,4],[4,-14],[1,-30],[6,-44],[-22,38],[1,-39],[-3,-26],[-5,-5],[-16,119],[-4,1],[-7,-18],[-7,-2],[0,62],[-2,7],[-13,9],[-3,19],[-3,-48],[-9,-10],[-19,-8],[-15,10],[-6,25],[-13,3],[-10,8],[-14,-12],[-15,-5],[-18,12],[-33,13],[-18,17],[-6,36],[10,51],[-2,60],[1,14],[-55,55],[2,3],[-227,203],[-3,0],[-22,19],[-3,7],[-43,39],[-57,51],[-6,-9],[-16,-36],[-7,-20],[-9,-18],[-24,-74],[-7,-30],[-10,-32],[-18,-72],[-11,-48],[-30,-122],[-21,-108],[-3,-9],[-6,4],[-2,-9],[28,-54],[2,-2],[70,-139],[9,-25],[11,-36],[-1,-2],[-14,46],[-8,20],[-145,281],[-7,9],[-8,23],[-5,5],[-8,20],[-17,34],[-10,20],[-77,128],[-11,19],[-11,14],[-22,36],[-12,22],[-5,-3],[-4,-17],[-21,23],[-4,-18],[-7,-20],[-5,-26],[-8,-11],[-8,-3],[-14,-39],[-10,-43],[-7,-42],[-1,-34],[-1,-19],[-7,-37],[-11,-36],[-12,-5],[-11,3],[-7,-8],[-9,-55],[-7,-30],[0,-6],[9,-69],[0,-10],[8,-25],[-4,-20],[1,-32],[3,-33],[4,-27],[-1,-10],[3,-6],[23,-121],[3,-22],[13,-66],[8,-67],[-1,-12],[4,-16],[1,-14],[6,-10],[11,-42],[2,-34],[-1,-9],[6,-39],[0,-24],[14,-18],[10,-18],[8,-29],[14,-38],[0,-12],[7,-16],[5,-23],[6,-50],[12,-62],[0,-15],[-12,-19],[-18,-22],[-4,-10],[-6,-23],[-6,-7],[-6,-26],[-7,-13],[-10,-29],[-7,-27],[-6,-56],[-7,-10],[-26,-56],[-6,-18],[-15,-49],[-15,-17],[-6,-15],[0,-16],[-6,-25],[5,-11],[14,-15],[26,-50],[3,-10],[34,-3],[5,-6],[27,-21],[10,7],[13,-14],[-8,-19],[4,-8],[6,6],[11,-1],[10,11],[15,-26],[12,-34],[1,-108],[25,-1],[1,-115],[26,6],[0,-484],[5,-66],[18,-48],[13,-32],[4,-13],[2,-34],[1,-45],[-1,-25],[2,-36],[1,-41],[3,-60],[4,-22],[8,-25],[3,-17],[9,-24],[3,-19],[7,-29],[0,-64],[-4,-36],[1,-46],[-2,-26],[9,-133],[4,-20],[8,-32],[0,-21]],[[216221,538620],[-23,-9],[-6,4],[-7,19],[-13,69],[-4,11],[-8,3],[-46,-14],[-51,-1],[-6,3],[-133,127],[-4,-24],[-8,-59],[2,-7],[10,-5],[15,-29],[8,-43],[9,-30],[11,-54],[7,-22],[18,-31],[1,-31]],[[215993,538497],[-818,3]],[[216698,544160],[11,25],[-5,29],[1,2],[6,-26],[6,5],[6,30],[-3,17],[9,15],[0,-5],[6,-24],[0,0],[6,-28],[-2,-5],[3,-12],[2,3],[15,-71],[-12,-22],[-6,34],[-12,-21],[-5,23],[-5,15],[-6,-12],[15,-75],[-15,-31],[-3,12],[7,38],[-8,16],[-6,19],[-6,27],[1,22]],[[218773,551215],[0,-202],[-1,-228],[1,-84],[54,1],[1,-16],[18,-192],[13,4],[7,25],[0,-24],[74,141],[44,84],[4,6],[-2,0],[0,216],[1,67],[1,194],[-2,7],[4,-1],[-1,19],[1,133],[0,189],[1,353]],[[218991,551907],[0,126],[0,31],[0,156],[-95,-2],[0,15]],[[218896,552233],[1,9],[7,15],[3,0],[9,20],[14,24],[10,11],[11,22],[4,-4],[6,12],[13,56],[-1,15],[2,21],[5,9],[7,27],[2,9],[19,29],[4,17],[28,20],[7,-2],[9,10],[8,2],[8,-6],[14,7],[9,39],[14,14],[6,19],[12,22],[3,14],[9,8],[8,0],[6,16],[12,14],[6,1],[14,36],[6,-6],[29,2],[-2,21],[-12,113],[5,2],[7,18],[11,20],[11,-6],[8,9],[23,42],[6,15],[15,7],[14,23],[5,2],[145,0]],[[219456,553001],[-2,-28],[6,-18],[-2,-17],[9,-17],[15,-5],[5,-15],[11,-9],[-8,-7],[-3,-8],[-4,2],[-6,-15],[-6,5],[-6,-15],[-5,-1],[-5,-13],[-4,0],[-10,-18],[-6,-3],[-4,14],[-9,-14],[-1,-14],[-6,-2],[-2,-13],[-10,-11],[-7,30],[-9,19],[-3,-4],[-23,11],[-12,-9],[-11,-1],[-3,5],[-14,-9],[-15,-21],[-11,-8],[-7,3],[-14,-14],[-7,-16],[-11,-13],[-7,-18],[-13,-3],[-8,-50],[-2,0],[4,-31],[43,-1],[-1,-85],[-33,0],[4,-42],[14,-129],[3,2],[42,8],[1,-35],[2,-14],[-5,-37],[-3,-8],[-30,-1],[8,-84],[3,21],[9,23],[0,-23],[4,-1],[0,-19],[53,0],[0,-12],[10,29],[13,22],[7,19],[0,-58],[45,-2],[6,0],[13,-9],[5,-11]],[[219443,552203],[-8,-2],[-3,3],[-10,-3],[-7,-8],[0,-14],[9,-22],[-9,7],[-1,-24],[-5,10],[1,-20],[-4,-10],[-1,-20],[3,-3],[7,13],[-2,-21],[11,-3],[3,-23],[-7,-2],[8,-23],[-3,-8],[-6,13],[-3,-9],[-8,12],[-2,-16],[-5,-11],[8,-7],[-5,-7],[5,-10],[-6,-8],[-4,-15],[9,-8],[-3,-16],[6,-1],[-2,-19],[6,-12],[36,0],[0,-137],[4,3],[-1,-27],[15,-17],[0,-22],[5,-3],[1,-17],[6,3],[-4,-30],[2,0],[2,5],[3,7],[3,-18],[-8,-13],[8,-14],[3,-23],[-8,-39],[-7,-6],[4,-14],[-6,-21],[-6,-4],[-7,-28],[6,-36],[5,-11],[-1,-6],[1,-5],[3,-18],[-9,-10],[-8,13],[-3,-20],[-1,-25],[5,-1],[4,-15],[-3,-25],[-7,-15],[9,-36],[-7,0],[-8,9],[3,-46],[-6,-16],[6,-31],[10,-1],[-11,-24],[5,-8],[-5,-8],[4,-28],[6,-6],[-7,-9],[2,-26],[12,-30],[-3,-10],[-9,11],[-6,-21],[-4,-30],[-6,-34],[-5,-3],[-3,-16],[-5,-36],[3,-9],[-5,-17],[0,-29],[-7,8],[-4,-30],[3,-20],[-3,-16],[8,-7],[-2,-13],[11,-25],[-2,-10],[-3,-2],[-12,19],[2,-51],[-7,-22],[0,-25],[-5,-30],[2,-23],[0,-23],[2,-5],[4,18],[10,12],[-2,-17],[1,-24],[8,-30],[-2,-9],[-14,-4],[6,-26],[-10,-14],[7,-24],[-1,-21],[5,-1],[8,11],[7,-6],[2,-13],[-5,-15],[-3,-17],[-5,-7],[-3,-14],[9,-4],[1,-16],[-6,-20],[1,-11],[8,-2],[2,-16],[-7,-22],[19,-17],[10,-22],[1,-14],[-9,-7],[-7,-23],[5,-16],[-5,-22],[2,-10],[1,8],[14,-10],[5,3],[10,-7],[7,-22],[8,0],[-5,-17],[-5,-4],[-7,9],[-21,-27],[-4,9],[2,-23],[6,-10],[-1,-25],[4,-15],[-2,-22],[9,-19],[-9,-20],[5,-29],[-2,-14],[8,-22],[-7,-28],[8,-24],[-7,-13],[4,-18],[-1,-22],[2,-22],[3,-2],[7,18],[6,6],[3,15],[11,21],[6,0],[-8,-33],[-2,-28],[-17,-33],[-1,-10],[10,-13],[3,-14],[-2,-10],[4,-18],[7,0],[-2,-20],[3,-28],[4,3],[2,-29],[7,9],[2,-20],[-2,-14],[3,-12],[0,-35],[4,-11],[7,-6],[1,-49],[11,-10],[3,-22],[5,-6],[6,-76],[6,25],[15,-17]],[[219939,548424],[0,-13],[43,-1],[0,-86],[52,7],[1,-24],[-2,-36],[1,-39],[52,0],[-2,-42],[1,-21],[-7,-6],[-2,-9],[5,-39],[0,-23],[3,-22],[-1,-51],[-5,-36],[1,-28],[-4,10],[-8,1],[-4,-13],[-3,-53],[6,-26],[-20,-9],[-3,-27],[-5,1],[-3,-15],[3,-15],[-4,-20],[2,-23],[4,-26],[-5,-12],[3,-19],[-6,-19],[-6,-7],[1,-16],[-3,-22]],[[220024,547645],[-7,-46],[-6,-10],[-7,6],[-5,-4],[-5,11],[-7,-1],[-9,18],[-6,-7],[-11,3],[-9,-9],[-21,-76],[-9,-23],[-13,-21],[-7,-23],[-9,-25],[-22,-31],[-8,5],[-18,24],[-12,10],[-23,-2],[-17,16],[-4,21],[-10,20],[-13,9],[-24,-4],[-6,9],[-10,1],[-18,37],[-6,5],[-14,36],[-9,31],[-3,30],[-11,43],[-2,81],[-3,35],[-13,32],[-4,3],[-5,15],[-11,19],[-7,5],[-10,-4],[-12,4],[-3,24],[-16,1],[-41,-3],[-5,3],[-20,0],[-5,-3],[-3,-17],[-7,-18],[-20,-71],[-2,-16],[-2,-6],[-14,-7],[-13,-3],[-3,5],[-14,-4],[-12,-26],[-10,3],[-18,-30],[-18,-46],[-14,-14],[-12,-7],[-7,-23],[-8,-9],[-11,5],[-7,8],[-8,-4],[-7,-36],[-9,-9],[-3,-8],[-4,-44],[-6,-33],[-2,-24],[-8,-57],[-2,-46],[-3,-31],[-11,-90],[-1,-46],[-2,-21],[-3,-50],[-3,-19],[-28,47],[-7,10],[-86,41],[-6,5],[-16,-132],[-2,-56],[12,-483],[0,-39],[-14,-322],[-9,-99],[-31,-299],[-6,-33],[-10,-38],[-20,-82],[-23,-85]],[[218995,545551],[-4,-3],[-12,9],[-17,31],[-6,25],[-2,17],[-3,63],[-6,24],[-12,-70],[-5,14],[-17,1],[-16,9],[-6,8],[-8,-17],[-7,-4],[-8,22],[-2,14],[3,37],[-13,-2],[-11,4],[-6,-10],[-17,13],[-5,-16],[-16,-3],[-11,-13],[-11,-28],[0,144],[-8,-13],[-21,2],[1,-44],[-20,26],[-1,72]],[[218728,545863],[22,183],[7,214]],[[218757,546260],[6,163],[-4,562],[-2,270],[9,12],[-8,27],[-1,29],[5,37],[-1,738],[-13,58],[10,124],[7,18],[0,361],[6,45],[0,496],[11,0],[16,6],[-7,20],[2,48],[-1,31],[-11,116],[-22,245],[-15,-1],[1,55],[-3,-6],[-50,-1],[-18,4],[-81,10],[-4,9],[-9,-45],[-26,-122],[-21,1],[-1,-40],[-13,-3],[-2,-43],[-13,1],[-1,-44],[-10,-1],[-1,-45],[-40,-3],[0,-88],[-33,-4],[-69,1],[-1,-105],[-118,-231],[-6,-15],[-88,-4],[-1,-175],[-105,-8],[-3,10],[1,2398],[693,34],[0,8],[34,2],[17,0]],[[219192,550192],[19,-1],[-1,20],[32,106],[19,0],[2,43],[8,179],[1,35],[-15,0],[0,31],[-6,2],[0,-15],[-18,3],[-1,20],[-13,8],[-1,-6],[-16,4],[0,-89],[-2,-327],[-8,-13]],[[219443,552203],[7,-31],[3,-7],[13,-11],[12,-22],[11,10],[11,-2],[13,10],[16,-4],[5,-8],[14,-44],[4,-5],[8,-5],[12,-22],[9,11],[0,7],[-6,35],[-9,22],[-2,44],[9,-24],[10,4],[-3,6],[9,17],[6,3],[5,19],[5,11],[7,-3],[10,18],[6,18],[8,5],[5,15],[7,0],[21,31],[5,3],[7,4],[7,19],[12,13],[5,-3],[19,9],[11,-20],[2,-17],[3,21],[-5,13],[1,17],[-2,30],[2,41]],[[217728,538418],[4,9],[3,-6],[14,57],[3,12],[2,6],[11,24],[10,19],[4,11],[11,31],[10,22],[1,5],[1,4],[3,12],[4,19],[10,43],[3,18]],[[217822,538704],[5,1],[2,0],[6,-1],[9,0],[15,-49],[1,-25],[15,-29],[18,-39],[8,0]],[[217901,538562],[-1,-23],[-7,-1],[1,-39],[-10,0],[9,-22],[-6,-48]],[[217887,538429],[-3,-2],[-7,0],[-23,0],[-15,1],[-14,0],[-4,0],[-9,0],[-14,7],[-5,0],[-23,1],[-5,0],[-7,-4],[-25,-58],[-5,-12]],[[217728,538362],[0,16],[0,40]],[[217161,542184],[1,1],[62,-369],[18,1],[19,0]],[[217261,541817],[0,-64],[17,-5],[13,17],[9,-10],[0,64],[-1,-1]],[[217299,541818],[-2,16],[-1,-1],[-7,-1],[0,25],[3,2],[-7,42],[-24,-1],[0,2],[1,42],[16,1],[-14,84]],[[217264,542029],[3,4],[8,23],[4,10],[9,13],[7,-4],[7,4],[5,-7],[6,1],[7,10],[7,0],[4,-9],[13,7],[15,15],[11,15],[10,-15],[7,-3],[1,7],[6,-9]],[[217394,542091],[0,-103],[163,0]],[[217557,541988],[138,-648],[4,-6],[62,-298]],[[217761,541036],[-43,-1],[-116,-1],[-9,-1]],[[217593,541033],[-140,-2],[-6,0]],[[217447,541031],[-3,0],[-3,1],[-14,0],[-36,-1],[-2,0],[-16,0],[-12,1],[-11,0],[-10,-1],[-2,0],[-11,0],[-12,-1],[-1,0],[-8,0],[-1,0],[-27,-2],[0,-6],[-3,-61],[-13,-43],[-10,-6],[-5,-3],[-3,-2],[-1,-1],[-4,-2],[-17,-48],[-9,-63],[4,-41],[25,-65],[11,-6],[11,26],[4,0],[7,-16],[2,-54],[-2,-25],[-3,-16],[-12,-28],[-3,-40],[-1,-1],[2,-35],[7,-19],[16,36],[9,0]],[[217290,540509],[-4,-88],[-24,-34],[4,-54],[1,-50],[-1,-20],[-5,-31],[-4,-25],[-10,-30],[-4,-11],[4,-34],[14,20],[19,-32],[0,-6],[-9,-1],[4,-73],[0,-1]],[[217275,540039],[-12,-19],[-8,-21],[-24,-29],[-22,-60],[-14,-69],[-1,-36],[1,-9],[8,-22],[14,-15],[13,-29],[10,-33],[1,-6],[4,-25],[-3,-31]],[[217242,539635],[-5,0],[-12,-2],[0,-21],[-19,-18],[1,-5],[-4,-1],[-22,0],[-1,94],[0,8],[0,3],[-53,-1],[-4,29],[-1,66],[-38,2],[-3,-8],[-14,-61],[-20,-15],[-91,-30],[87,-295],[5,-16],[-2,-2],[-10,29],[-16,54],[-4,16],[-1,5],[-41,140],[-58,-67],[0,-125],[2,-34],[11,-55],[-4,-9],[-8,-28],[-6,-17],[-6,-30],[-12,-43],[-18,-31],[-13,-28],[-8,-10],[-15,-34],[-7,-13],[-7,-25],[-9,-44],[-10,-19],[-12,-14],[-6,-18],[-10,-13],[-6,-13],[-10,-40],[-16,-53],[-18,-4],[-7,-16],[-500,-203]],[[217044,541410],[19,-158],[11,10],[4,16],[34,53],[0,20],[1,44],[-9,171],[17,31],[5,3],[-3,49],[-10,-29],[-5,41],[-6,4],[-10,-17],[-14,-20],[2,-35],[5,-76],[-12,-24],[-2,18],[-9,1],[0,-21],[-21,1],[3,-82]],[[219892,552736],[-173,-3],[5,270],[1,76],[4,238],[0,2]],[[219636,555228],[-109,6],[-113,3],[-3,1034],[2,82],[-2,660],[-4,112],[1,35],[1,55],[-1,23]],[[219408,557238],[-440,-5],[-79,-1]],[[218190,539172],[-1,0]],[[217945,539003],[0,12],[-30,-2],[0,20],[-6,6],[0,41],[30,2],[0,79],[19,64],[2,-11],[5,10],[-2,18],[40,135],[25,3],[39,130],[21,-3],[10,-32],[-11,-39],[1,-38],[10,2],[0,-21],[3,-31],[-3,40],[19,23],[7,20],[18,33]],[[216788,545198],[21,-114]],[[216809,545084],[-5,-21],[-6,-27],[-2,7],[-6,-19],[-4,-18],[1,-27],[-4,-18],[-5,-6],[-4,-14],[-6,-18],[-2,-1],[0,-3]],[[216766,544913],[0,-19],[-5,-6],[1,-28],[-4,-4],[5,-13],[3,4],[5,-65],[-3,-3],[2,-25],[3,-1],[3,-40],[2,-27],[-2,-6],[0,-15],[1,-13],[4,-50],[1,1],[1,-43],[1,-2],[10,-34],[3,-11],[-3,-9],[4,-18],[2,2],[5,-4],[12,-35],[0,-1],[7,-25],[3,-27],[0,-1],[4,-43],[-3,-17],[0,-15],[1,1],[1,19],[3,-2],[1,-13],[0,0],[-12,-10],[-4,-3],[-3,0],[-5,-11],[24,-42],[-1,-6],[-5,-9],[-5,-8],[1,-2],[2,4],[3,-36],[5,-16],[-5,-8],[0,0],[5,-29],[9,-55],[3,-19],[6,-33]],[[216852,544042],[2,-17],[0,-2],[6,-36],[4,-27],[7,-42],[29,-171],[10,-57],[39,-231]],[[217765,538976],[15,7],[3,6]],[[217783,538989],[14,0],[1,-9],[-18,-10],[-6,-17],[-9,-2],[0,-48],[-5,0],[-4,-1],[0,58],[4,11],[5,5]],[[218676,535966],[5,-28],[80,-389],[28,-134]],[[218522,534932],[1,36],[11,56],[-2,36],[12,26],[2,-7],[5,12],[-18,100],[-5,10],[-45,195],[2,13],[-8,33],[-16,70]],[[216809,545084],[25,-134],[13,-70],[6,-32],[16,-88],[4,-23],[2,-16],[4,-38],[9,-105],[6,-70],[3,-42],[8,-94],[8,-87],[15,-182],[0,-21],[-4,-4],[-3,7],[6,-24],[13,-66],[1,-6],[21,-112],[2,-8],[51,-271]],[[217015,543598],[-8,-29],[-2,-12],[-16,85],[-5,23],[-24,105],[-3,9],[-11,-30],[-9,0],[-27,-1],[-2,69],[-9,47],[0,4],[37,1],[-4,16],[-22,104],[-8,-18],[-12,-11],[-1,46],[-19,-12],[2,46],[-2,19],[-1,1],[-15,-25],[-2,7]],[[217389,539954],[11,-1],[40,-11],[-1,-5],[-3,-26],[-5,-15],[-9,-18],[-4,-17],[-4,-32],[1,0],[-1,-26],[4,-49],[5,-69],[4,-51],[3,-17],[4,0],[4,6],[16,1],[12,-7],[5,-1],[15,12],[7,13],[2,-16],[7,7],[6,-4],[14,12],[13,-24],[53,0],[-5,62],[37,0],[0,-15],[13,1],[4,-16],[7,-23],[10,-20]],[[217654,539605],[7,-112]],[[217661,539493],[1,-5],[3,-62],[0,-20],[0,-125]],[[217665,539281],[-4,-22],[-1,-4],[-3,-33],[-3,-27],[0,-10],[0,-39],[9,-58],[4,-22],[7,-41],[3,-19],[3,-34],[1,-16],[0,-51],[0,-30],[4,-39],[10,-68],[3,-32],[-1,-9]],[[217697,538727],[-52,19],[10,2],[4,10],[0,42],[-22,-1],[-4,-9],[3,-41],[-6,0],[-3,-33],[-12,-40],[-3,2],[-4,8],[0,68],[-34,17]],[[217574,538771],[-6,18],[-7,9],[-4,1],[-14,1],[-22,0],[-7,2],[-8,13],[-14,52],[-13,52],[-3,11],[-5,18],[-33,127],[-3,15],[-7,58]],[[217428,539148],[-6,60],[-7,95],[-4,60],[-4,69],[-3,43],[-9,141],[-3,44],[-2,25],[-1,23],[0,246]],[[217736,546136],[1,-75],[0,-11],[-26,-156],[-2,-21],[0,-148],[0,-22],[5,5],[137,0],[2,23],[6,-23],[13,0],[3,8],[127,284],[1,-83],[25,-2]],[[218028,545915],[-1,-357],[0,-527]],[[218027,545031],[-39,1],[0,-165],[-13,0],[-1,-43],[-51,-1],[-2,48],[-52,2],[0,40],[-105,5],[0,43],[-54,3],[0,79],[-107,2]],[[217603,545045],[0,498],[-53,-2],[-1,82],[-13,-1],[0,82],[-39,1],[-1,114],[1,24],[-11,14],[-34,54],[-19,75],[8,-2],[7,3],[23,37],[6,19],[12,53],[8,13],[2,1],[237,26]],[[217015,543598],[43,-223],[23,-118],[5,-28]],[[217086,543229],[-3,-2],[2,-9],[-6,-10],[-17,1],[-9,-5],[-43,0],[-4,0],[14,-84],[0,0],[-1,-3],[-10,-15],[-2,17],[-1,2],[-1,-1]],[[219729,553319],[-9,-5],[-10,-29],[1,-4],[1,-23],[-9,-62],[0,-37],[2,-38],[-5,-31],[-4,-15],[-10,-26],[-3,-22],[-7,-25],[-220,-1]],[[219456,553001],[1,18],[17,77],[9,19],[9,3],[3,10],[-3,23],[-9,7],[-15,6],[-16,39],[-11,-3],[-15,47],[3,16],[-10,10],[0,20],[3,8],[14,6],[-10,69],[-3,43],[4,8],[2,14],[8,25],[10,44],[-3,8],[4,45],[16,24],[13,7],[-3,10],[6,31],[8,12],[13,43],[2,34],[2,13],[6,3],[6,14],[3,23],[11,19],[-10,31],[-2,10],[-2,14],[0,22],[-7,18],[-1,14],[1,10],[-5,27],[-9,9],[-8,3],[-8,12],[-19,12],[-5,12],[-10,16],[-15,29],[-7,19],[-3,1],[69,212],[-15,-1],[1,-13],[-3,15],[7,37],[8,27],[1,8],[10,5],[2,17],[13,19],[14,33],[3,-4],[8,17],[2,21],[10,9],[34,102],[10,16],[8,4],[5,-1],[50,-27],[13,2],[11,11],[12,12],[5,18],[-5,5],[-3,14],[6,17],[2,38],[-5,40],[-2,34],[-2,20],[1,17],[-4,16],[-5,5],[-7,15],[-6,76],[0,45],[1,29],[5,19],[-2,33],[6,48],[0,34],[-6,24],[-16,15],[-18,29],[-3,11],[-11,3],[-4,22],[2,8],[5,4],[8,13]],[[218189,537988],[28,-102],[2,-6],[32,-116],[10,-37],[18,-65],[8,-29],[26,-89],[2,-6]],[[218315,537538],[-38,-158],[-5,-15],[-4,-7],[-28,-41],[-13,-28],[4,-15],[12,31],[10,-42],[-5,13],[-14,-17],[-3,12],[0,-11],[-12,-19],[3,-13],[-11,-3],[8,-52],[-4,-7],[-11,56],[-8,-5],[-3,23],[-12,-13],[-17,-14],[-10,14],[-1,-34],[-1,-5],[-4,-1]],[[218148,537187],[-28,232],[-8,65],[-23,64],[-35,86]],[[218054,537634],[1,18],[5,31],[4,-7],[3,29],[-3,3],[3,26],[1,8],[5,12],[9,0],[7,-7],[3,1],[7,14],[2,3],[3,16],[2,8],[5,51],[6,16],[5,13],[7,40],[-2,29],[-3,34],[-1,9],[3,35],[-1,118],[0,3]],[[215425,552021],[11,-28],[2,-13],[7,8],[5,-27],[7,-27],[10,-75],[5,-30],[20,-55],[2,-9],[-2,-25],[10,-66],[7,-18],[2,-19],[6,-3],[7,10],[2,13],[5,-15],[13,6],[11,-3],[12,6],[-2,-28],[0,-49],[5,-24],[7,-15],[15,-63],[10,-30],[6,9],[10,-7],[8,15],[3,-1],[6,-30],[8,-25],[3,-22],[-1,-17],[6,-12],[5,-34],[8,-15],[8,-21],[11,-13],[8,14],[15,4],[10,8],[13,0],[7,-89],[3,-10],[0,-30],[7,-87],[8,-25],[4,-46],[-3,-21],[6,-62],[6,-78],[1,-25],[0,-61],[-8,4],[-11,-9],[-15,7],[-4,-10],[5,-1],[6,-12],[4,-16],[-1,-22],[6,-23],[2,-16],[10,-24],[-1,-47],[3,-7],[6,10],[2,-15],[11,3],[10,-10],[26,-81],[4,-20],[26,-90],[-1,-24],[-6,-53],[-7,-85],[-5,-35],[-1,-24],[-9,-51],[-43,3],[-19,0],[-4,18],[-5,37],[-1,17],[-5,22],[-2,25],[-9,44],[-6,25],[-10,61],[-15,12],[-12,17],[-19,18],[-2,10],[-6,6],[-4,15],[-10,24],[-12,14],[-4,23],[-2,3],[-11,-6],[-3,-9],[-5,12],[-19,-1],[-4,-11],[-3,3],[1,14],[-1,33],[-9,16],[-5,17],[-2,27],[-11,20],[-6,-18],[-7,15],[-9,37],[-17,8],[-6,-5],[-7,21],[11,6],[12,20],[6,-3],[11,3],[8,-7],[12,15],[9,-6],[3,4],[-1,14],[-4,11],[2,29],[6,22],[4,1],[4,-13],[8,4],[6,18],[-3,25],[10,59],[3,48],[-7,42],[-16,59],[-8,10],[-4,-3],[-12,1],[-13,16],[-6,-9],[-8,-2],[-7,11],[-11,1],[-6,-5],[-11,-23],[-16,-5],[-2,-16],[-12,-27],[-7,-23],[-2,-21],[-4,-18],[-17,-24],[-8,-35],[-12,-28],[5,-38],[-4,-10],[-5,-11],[-7,-3],[-13,-12],[-4,13],[-7,9],[-6,17],[-12,18],[-6,5],[-7,-21],[-6,-7],[-4,-13],[-5,-32],[2,-12],[-7,-32],[-1,-30],[-4,9],[-7,-14],[-4,-2],[-6,-21],[-5,-7],[-4,-15],[-1,-25],[-6,-29],[-2,-15],[-9,-24],[-3,-5],[-5,-22],[0,-30],[2,-18],[8,-32],[8,-26],[1,-51],[4,-12],[1,-22],[-2,-50],[-3,-15],[-8,-32],[-1,-16],[-5,-11],[-9,-6]],[[215277,550178],[-10,34],[-34,109],[-13,38],[-4,22]],[[215216,550381],[-7,61],[-9,70],[-2,29],[2,254],[5,173],[0,41],[-2,20],[-15,176],[-6,48],[-8,29],[-41,171],[-12,49],[-15,2],[-3,-19],[-9,-6],[-13,6],[-8,-4],[-10,5],[-24,59],[-10,16],[-15,3],[-22,22]],[[215193,550329],[0,45],[10,-3],[6,2],[6,8],[1,0]],[[215277,550178],[-1,-3]],[[215276,550175],[-10,-28],[-7,-15],[-12,-7],[-5,19],[-23,69],[-30,79],[3,0],[1,37]],[[217391,538868],[2,-16],[13,-41],[20,-3],[6,18],[6,19],[11,-9],[1,-17],[8,-4],[6,-4],[8,-8],[16,-17],[7,-7],[4,-4],[2,-9],[4,-18],[2,-9],[8,-25],[19,-41],[2,-13],[1,-5],[1,-11],[5,-49],[2,0],[6,2],[8,-18],[1,-9],[-6,6],[-11,9],[-6,17],[-7,49],[-5,24],[-8,10],[-7,-6],[-16,-25],[-6,-14],[-12,-36],[-7,-25],[-5,-50],[-5,-28]],[[217459,538501],[-28,0]],[[217431,538501],[0,13],[-26,45],[-21,35],[-13,24],[-9,23],[-6,15],[-9,34],[-4,20],[0,12],[0,23],[-1,25],[-2,11],[-5,10],[-12,3],[-9,11],[-11,38],[-8,13],[-11,4],[-10,8],[-27,74],[8,3],[3,12],[0,13],[7,-6],[29,36],[3,4],[3,36],[-21,81],[-7,42],[14,19],[3,-9],[9,5],[9,-43],[8,-20],[-5,-38],[1,-29],[5,-32],[11,-45],[9,-24],[15,-24],[26,-88],[13,-87],[2,5],[0,22],[11,24],[-13,65],[1,4]],[[218447,535513],[14,-1]],[[218522,534932],[-3,12],[-2,15],[-2,15],[-13,197],[-2,21],[-3,19],[-32,114],[-3,18],[-2,15],[-3,33],[-10,122]],[[218279,536368],[34,32],[3,2],[17,16],[0,14],[2,-12],[1,-5],[2,8],[25,23],[1,-14],[3,3],[0,15],[24,23],[1,0]],[[218392,536473],[1,-22],[9,-59],[7,-54],[7,-52],[5,-42],[10,-66],[25,11],[2,2],[8,-71],[13,-51],[-13,-34],[10,-44],[16,-60],[42,-168],[-3,-21],[2,-65],[-16,18],[-31,-1],[-6,-35],[-12,1],[-22,10],[-18,18]],[[218428,535688],[-2,9],[-20,52],[-21,42],[-56,112],[-3,7],[-2,11],[-13,157],[-7,97],[-2,19],[-1,12],[-13,84],[-9,78]],[[217761,541036],[58,1],[2,0],[100,1],[7,0],[45,2],[53,-4],[1,0],[50,1],[2,0],[11,1],[41,0],[14,1],[36,0],[4,1],[8,0]],[[217827,539502],[-4,-1],[-5,0],[-18,-1],[-10,-1],[-10,-1],[-104,-9],[0,9],[-14,-4],[-1,-1]],[[217654,539605],[0,55],[0,4],[3,291],[0,84],[4,387],[-5,81],[1,69],[-9,115],[-20,99],[-3,10],[-24,61],[0,55],[-6,34],[7,47],[0,17],[-10,10],[1,9]],[[218367,538232],[0,-68],[0,-12],[0,-62],[0,-37],[1,-38],[0,-13],[0,-55],[0,-119],[0,-24],[-1,-32],[-2,-15],[-2,-20],[-4,-17],[-14,-59],[-30,-123]],[[218173,538672],[-3,496]],[[217275,540039],[0,-9],[18,3],[24,0],[2,0],[0,-85],[-1,-43],[8,-1],[1,-34],[-9,0],[0,-89],[17,-6],[3,-6],[-5,184],[3,-2],[2,-108],[0,-3],[1,-21],[4,-49],[21,125],[10,54],[2,-4],[13,9]],[[217428,539148],[-19,14],[-1,-10],[-7,-8],[-1,8],[-2,18],[-36,27],[-22,16],[-22,16]],[[217318,539229],[-22,2],[-6,1],[-22,74],[-12,40],[-7,50],[-6,16],[-11,31],[-2,3],[-6,16],[0,62],[3,34],[11,53],[2,8],[2,16]],[[217290,540509],[-2,18],[0,27],[23,0],[5,-5],[5,-1],[2,-1],[4,-208],[0,-2],[1,-17],[34,-2],[0,12],[20,0],[0,13],[7,2],[0,94],[0,55],[0,35],[0,117],[0,42],[0,38],[2,-1],[0,-13],[59,1]],[[217450,540713],[0,-23],[2,-128],[2,-169],[-9,-6],[-8,0],[-9,-23],[-23,-8],[-9,-7],[-7,-4],[0,-43],[0,-148],[0,-123],[0,-76],[0,-1]],[[218392,536473],[-1,16],[15,-2],[24,22],[32,31],[7,6],[1,-16],[6,-4],[7,-28],[5,-29],[6,8],[-3,40],[-2,5],[-11,38],[21,13],[7,12],[5,-30],[11,-55],[8,20],[-1,-58],[7,-40],[27,58],[16,-77],[-15,-32],[2,-24],[3,-16],[3,-9],[1,-4],[1,-5],[5,17],[2,6],[6,13],[5,3],[3,5],[13,-61],[68,-330]],[[217697,538727],[-2,-13],[5,-42],[-1,-20],[3,-9],[2,-17],[0,-8],[2,-20],[-2,-39],[1,-15],[4,-30],[2,-20],[9,37],[1,15],[2,5],[5,-9],[0,-48],[0,-63],[0,-13]],[[217728,538362],[-3,-6],[-31,-76],[-6,-9],[-5,-3],[-3,-3],[-8,-18],[-2,-6],[-10,-21],[-7,-8],[-8,1],[-7,9],[-2,-4],[-2,7],[-5,24]],[[217629,538249],[-10,44],[2,3],[-9,55],[-4,15],[-8,30],[-6,40],[-3,29],[-7,144],[1,58],[-2,38],[-9,66]],[[217934,539506],[-29,-171],[-12,-75],[-4,-25],[-23,-137]],[[217866,539098],[-18,-106],[-9,0],[-2,0],[-21,-1]],[[217816,538991],[-33,-2]],[[217765,538976],[-5,-3],[-4,-12],[-1,25],[-10,-42],[-10,1],[-3,3],[-7,11],[-3,12],[-1,7],[1,19],[-2,77],[-8,41],[-6,0],[-6,18],[-4,24],[-9,24],[-8,6],[-8,70],[-6,24]],[[217887,538429],[5,6],[10,22],[9,17],[23,2],[18,7],[10,-13],[16,-29],[1,-1]],[[217979,538440],[-1,-4],[-15,27],[12,-114],[2,-30],[-3,-77],[0,-15],[-1,-16],[2,-13],[-5,12],[-3,10],[-6,18],[-8,23],[-3,8],[-3,-3],[4,-39],[0,-8],[7,-26],[3,-58],[-16,-79],[-2,-13]],[[217943,538043],[-41,83],[-2,3],[-3,3],[-9,8],[-9,5],[-21,10],[-6,6],[-6,6],[-9,18],[-20,43],[-20,45],[-7,2],[-6,-5],[-36,-52]],[[217748,538218],[-2,19],[0,25],[0,7],[0,20],[8,19],[11,29],[0,11],[0,14],[0,17],[0,25],[-10,-10],[-14,-25],[-5,-10],[-8,-20],[0,23]],[[217866,539098],[-1,-82],[17,0],[4,-6],[2,-12],[1,-156],[-18,-1],[-11,-4],[0,-57],[2,-15],[2,2],[26,2],[0,58],[3,-16],[11,-32],[9,34],[7,-21],[3,44],[10,0],[8,-7],[1,-17],[-1,109],[1,0]],[[218067,539038],[4,-16],[-6,-13],[-12,-11],[-28,-75],[-7,-8],[-11,-1],[-1,-37],[-37,-2],[0,-60],[4,-28],[-9,-18],[-2,-12],[-10,-23],[2,34],[-12,0],[1,-106],[0,-31],[0,-21],[-2,-20],[-15,18],[-1,-22],[0,-24],[-12,1],[-5,0],[-7,-1]],[[217822,538704],[2,22],[1,7],[0,7],[4,96],[1,26],[2,30],[2,20],[-3,0],[-9,0],[1,30],[-6,0],[0,20],[-1,29]],[[217979,538440],[47,-82],[17,-30],[4,-7],[20,-47],[10,-23],[4,-9],[12,-30],[19,-43],[13,-32]],[[218054,537634],[-6,14],[-7,21],[-4,27],[-3,29],[-9,112],[-1,16],[-4,23],[-5,21],[-9,18],[-6,12],[-24,48],[-4,8],[-3,6],[-26,54]],[[219212,537528],[0,-242],[3,-852],[1,-471],[0,-30],[-160,3],[-374,2]],[[218682,535938],[-5,28],[-68,330],[-13,63],[-54,260],[-23,112],[-17,85],[-5,20],[-29,143],[-15,74],[-18,84],[-9,32],[-4,12],[-54,180],[-14,46],[-24,81],[-15,50]],[[217261,541817],[31,1],[0,-10],[3,1],[0,9],[4,0]],[[217292,546731],[0,5],[0,115],[-2,55],[2,326],[-33,4],[-18,-7],[1,337],[-45,6]],[[217197,547572],[831,1],[-1,-525],[-127,-608],[-5,-25],[-8,-24],[-6,-15],[-125,-221],[-6,-10],[-14,-7],[0,-2]],[[217603,545045],[-167,1],[0,-48],[-38,0],[0,-80],[13,1],[0,-83],[13,-1],[0,-38],[0,-48],[-12,0],[0,-45],[-15,0],[-4,-1229],[0,-61]],[[217393,543414],[-19,17],[-5,8],[-12,8],[-19,1],[-5,-7],[-6,10],[-14,10],[-3,7],[-16,4],[-7,-8],[-5,-16],[-4,-2],[-11,-18],[-4,-1],[-9,-23],[-8,-1],[-16,-19],[-5,-11]],[[217225,543373],[-17,-55],[-1,-14],[-5,-4],[-9,-31],[-15,-37],[-13,-52],[-14,-39],[-3,-19],[-8,-14],[-8,-31],[-3,-19],[1,-7],[0,-6],[-1,-2],[-5,-4],[-1,-2],[-37,192]],[[216809,545084],[15,46],[23,71],[24,73],[8,25],[0,2],[22,65],[19,59],[7,20],[7,13],[62,81],[3,3],[26,34],[53,69],[54,70],[26,34],[23,29],[1,2],[3,4],[8,10],[45,59],[56,73]],[[215193,550329],[-22,96],[-4,14],[-14,22],[-3,-52],[-6,-59],[-1,-18],[3,-8],[11,-7],[4,-12],[2,-24],[-3,-41],[-3,-34],[-7,-15],[-2,-24],[2,-18],[4,-10],[13,-15]],[[215167,550124],[0,-2],[0,-232]],[[215276,550175],[15,-52],[9,-29],[36,-129],[10,-44],[24,-122],[3,-18],[4,-17],[44,-164]],[[215421,549600],[-6,-30],[2,-20],[-8,-18],[-3,-26],[-7,-13],[-10,-40],[-8,-5],[0,-73],[-53,134],[0,-54],[-14,17],[-2,-21],[6,-27],[0,-30],[-7,-91],[0,-36],[7,-29],[10,-15],[0,-9]],[[215328,549214],[-5,9],[-17,19],[-3,25],[-1,26],[2,19],[3,49],[-2,37],[-1,7],[-3,10],[-25,36],[-22,43],[-5,25],[-3,62],[-3,12],[-11,22],[-14,13],[-4,9],[-1,7],[2,53],[0,37],[-7,48],[-8,28],[-1,24],[2,21],[5,23],[8,21],[2,16],[1,16],[-5,22],[-24,58],[-5,29],[-6,58],[-4,15],[-6,11]],[[215421,549600],[21,-75],[17,-69],[10,-47],[42,-238],[6,-24],[21,-90],[5,-14],[12,-15],[48,-29],[13,-3]],[[215616,548996],[-2,-51]],[[215614,548945],[-5,-6],[-12,-12],[-8,4],[-13,21],[-15,15],[-3,6],[-22,29],[-11,4],[-17,-13],[-6,-5],[-17,-2],[-7,25],[-14,56],[-12,30],[-13,23],[-5,1],[-41,11],[-25,6],[-4,3],[-7,10],[-20,51],[-9,12]],[[217557,541988],[140,-6],[10,2],[15,0],[22,1],[2,1],[16,-2],[30,-1],[73,-2],[6,-1],[155,-5],[0,348],[0,672],[1,2036]],[[218028,545915],[0,146],[140,316],[11,-38],[-60,-243],[37,0],[2,-4],[0,-43],[78,-13],[30,-66],[0,459],[21,-30],[9,-5],[8,2],[187,183],[9,13],[42,-10],[7,-10],[3,-12],[3,-27],[0,-28],[12,4],[8,-5],[11,5],[9,-5],[23,5],[13,-9],[5,-30],[5,-51],[9,-48],[17,-144],[8,-57],[43,-30],[-7,85],[8,5],[13,-10],[12,-5],[13,45]],[[218728,545863],[-12,-113],[7,1],[19,-35],[35,-89],[133,-344],[3,-8],[10,42],[11,38]],[[218934,545355],[3,-6],[-9,-28],[-5,-16],[-6,-27],[-451,-2647],[-4,-18],[-113,-664],[-3,-12],[-130,-767],[-22,-130]],[[217225,543373],[41,-370],[27,-1],[0,-25],[-3,-30],[-2,-43],[-5,-41],[17,-146],[-6,-13],[-9,-34],[-6,-20],[-9,-4],[-7,-30],[-6,-15],[-6,-3],[-13,-38],[-9,-11],[-5,-11],[-11,0],[-8,19],[-4,21],[-2,8],[-33,0],[0,6],[-3,15],[-15,-7],[2,-14],[-4,0],[-8,42],[-33,-17],[-6,-13],[-4,-7],[3,-15],[29,-172],[2,-10],[5,-22],[8,-49],[2,-18],[19,-118],[5,-31],[10,-56],[1,4],[0,52],[43,0],[2,9],[10,7],[3,13],[27,-156]],[[214554,538498],[-383,0],[-23,0],[-38,0],[-699,0]],[[218995,545551],[-61,-196]],[[218773,551215],[12,38],[6,45],[8,22],[5,22],[9,20],[-5,19],[0,27],[-10,77],[-2,24],[-21,211],[3,2],[112,3],[3,-1],[8,-31],[9,-63],[4,35],[59,245],[18,-3]],[[218896,552233],[-3,766],[0,19],[-2,-5],[-7,-10],[-6,-4],[-95,-1],[0,277],[-2,17],[-16,109],[-2,7],[-32,14],[53,168],[110,0],[0,100],[-4,3245],[-2,131],[1,166]],[[216381,547263],[-48,309],[-104,685],[-2,9],[-8,51],[-5,22],[-18,70]],[[216196,548409],[8,47],[38,252],[25,-190],[17,28],[12,26],[13,1],[2,5],[7,-28],[10,-31],[15,-38],[13,-38],[10,-37],[13,-32],[9,-27],[15,-32],[9,-16],[9,-27],[47,-80],[10,-19],[11,-14],[7,-13],[19,-15],[39,-41],[15,-1],[6,-5],[112,33],[28,4],[21,8],[102,68],[37,17],[22,18],[-1,7],[-2,36],[12,24],[2,15],[29,312],[0,14],[-10,175],[3,10],[12,14],[-5,29],[0,41],[-6,37],[0,23],[3,32],[-3,23],[-11,42],[-1,14],[-6,16],[8,57],[4,19],[1,26],[-10,31],[-5,4],[-4,15],[-10,68],[0,16],[-6,35],[-6,-2],[-10,6],[-24,-36],[-18,-33],[-7,11],[-3,29],[-8,38],[-8,79],[-10,33],[-8,17],[-19,-26],[-12,-8],[-14,-16],[-11,-17],[-2,-29],[-7,-39],[-3,-31],[-3,-5],[-11,9],[-6,10],[-5,18],[-15,23],[-10,22],[-32,-39],[-2,-1],[-20,19],[-16,3],[-52,134],[-9,42],[-7,35],[-10,38],[-3,29],[-9,37],[-8,31],[-5,57],[-4,24],[-4,38],[-7,33],[0,14],[-6,-4],[-18,-47],[-8,-23],[-8,-42],[-25,-94],[-12,11],[-8,13],[-8,23],[-18,18],[-17,7],[-11,6],[-15,4],[-16,10],[-54,-11],[-23,7],[-15,-4],[-13,-11],[-5,2],[-10,12],[12,19],[18,39],[17,61],[14,28],[14,51],[2,13],[7,55],[11,58],[155,-1],[0,67],[0,441],[422,668],[0,-59],[1,-614],[55,5],[1,-508],[52,0],[-2,-340],[3,-168],[51,-5],[-2,-502],[57,-4],[-1,-460],[0,-46],[55,0],[-2,-271],[0,-246],[53,3],[-1,-502],[10,-1],[2,0]],[[217447,541031],[2,-240],[1,-21],[0,-16],[0,-41]],[[217748,538218],[-2,-6],[-3,-10],[-5,-52],[-2,-18],[-5,-16],[-3,-2],[-7,-7],[-22,-21],[-6,-6],[-7,-1],[-8,8],[-16,40],[-5,24],[-9,14],[-3,6],[-4,17],[-6,13],[-7,27],[-5,9],[-4,0]],[[217619,538237],[2,12],[8,0]],[[217619,538237],[-5,0],[-2,16],[-1,8],[-2,48],[-2,19],[-4,20],[-3,10],[-5,0],[-5,3],[-18,51],[-4,26],[-11,39],[0,9],[1,7],[-11,9],[-88,-1]],[[217391,538868],[-16,70],[-2,9],[-3,7],[-3,5],[-12,21],[-23,1],[-5,0],[-8,33],[6,77],[1,15],[4,45],[-1,56],[-10,18],[-1,4]],[[217393,543414],[0,-413],[1,-910]],[[215614,548945],[21,14],[9,-3],[6,0],[14,-9],[16,-23],[13,-33],[13,-29],[17,-45],[3,-10],[19,-99],[11,-33],[11,-17],[7,-4],[10,10],[14,22],[9,0],[52,-22],[0,-5],[15,-16],[17,-68],[-11,-30],[32,-146],[6,-16],[0,-36],[85,-123],[5,9],[14,-26],[2,-10],[-2,-57],[3,-48]],[[215784,547412],[-16,-14],[-15,13],[-7,-12],[-4,-21],[-8,-20],[-5,6],[-7,0],[-11,-22],[-13,4],[-18,-21],[-5,-15],[-10,-9],[-11,0],[-2,7],[-11,-2],[-3,-16],[-6,-1],[-1,-15],[-3,-3],[-2,-24],[-3,3],[-12,-16],[1,-10],[-5,-5],[-6,-37],[2,-8],[-1,-22],[-4,-24],[0,-42],[-3,-17],[0,-34],[-4,-28],[-1,-30],[8,-60],[-5,-13],[-2,-18],[3,-15],[-6,6],[-9,-1],[-5,11],[-6,29],[-5,7],[-4,-5],[4,-22],[5,-19],[4,-22],[6,-8],[4,-34],[10,-31],[0,-18],[-14,-5],[-12,20],[-9,-7],[-14,-49],[-5,-4],[-18,4],[-16,14],[-15,-4],[-10,-10],[-24,-40],[-14,-33],[0,-37],[1,-20],[-2,-38],[-10,-12],[-13,-2],[-5,4],[-16,-5],[-9,-14],[-17,-11],[-1,-21],[-12,-6],[-12,13],[-7,25],[0,17],[-12,30],[-11,31],[-6,41],[-3,35],[-7,10],[-9,28],[-5,-1],[-9,10],[-6,19],[-5,24],[-8,20],[-10,14],[-10,2],[-20,-9],[-12,-9],[-17,-7],[-17,-3]],[[218682,535938],[113,-548],[2,-12],[-8,37]],[[218279,536368],[-3,29],[-3,9],[-10,62],[0,21],[1,22],[-7,62],[0,18],[-1,13],[-1,14],[-13,76],[-1,9],[-13,57],[-25,117],[-15,72],[-7,41],[-9,47],[-14,67],[-10,83]],[[215616,548996],[27,-8],[17,-6],[112,-70],[10,-4],[8,-1],[26,7],[59,14],[9,0],[5,-2],[30,-19],[16,-7],[2,22],[1,26],[11,30],[18,19],[23,9],[23,-8],[2,10],[5,-8],[3,6],[8,32],[12,31],[9,46],[13,54],[12,28],[7,6],[3,14],[3,19],[12,99],[4,41],[3,42],[14,-90],[12,-102],[7,-46],[13,-107],[2,-17],[6,-62],[5,-109],[0,-36],[17,-163],[-1,-17],[-3,-26],[0,-21],[-6,-50],[2,-49],[0,-16],[3,-38],[16,-60]],[[217431,538501],[-94,0],[-7,0],[-461,-2],[-754,0],[-14,0],[-7,0],[-19,-2],[-82,0]]],"objects":{"cb_2020_us_zcta520_500k":{"type":"GeometryCollection","geometries":[{"arcs":[[[0]],[[1,2,3,4,5,6,7,8,9]]],"type":"MultiPolygon","properties":{"ZCTA5CE20":"88007"}},{"arcs":[[11,12,13]],"type":"Polygon","properties":{"ZCTA5CE20":"79935"}},{"arcs":[[14,15,16,17,18]],"type":"Polygon","properties":{"ZCTA5CE20":"79908"}},{"arcs":[[19,20,21,22,23,24,-11]],"type":"Polygon","properties":{"ZCTA5CE20":"88042"}},{"arcs":[[25,26]],"type":"Polygon","properties":{"ZCTA5CE20":"88052"}},{"arcs":[[29,30,31,32,33,34,35,36]],"type":"Polygon","properties":{"ZCTA5CE20":"87901"}},{"arcs":[[37]],"type":"Polygon","properties":{"ZCTA5CE20":"88004"}},{"arcs":[[39,40,41,42]],"type":"Polygon","properties":{"ZCTA5CE20":"79924"}},{"arcs":[[43,44,45,-39,46,47,48,49,50,-40]],"type":"Polygon","properties":{"ZCTA5CE20":"79938"}},{"arcs":[[-36,52,53]],"type":"Polygon","properties":{"ZCTA5CE20":"87942"}},{"arcs":[[55]],"type":"Polygon","properties":{"ZCTA5CE20":"88003"}},{"arcs":[[56,57,58,59,-24,60,61,-10,62,63,64,65,66,67,68]],"type":"Polygon","properties":{"ZCTA5CE20":"88030"}},{"arcs":[[69,70,71,72,73,74,-64]],"type":"Polygon","properties":{"ZCTA5CE20":"88044"}},{"arcs":[[75]],"type":"Polygon","properties":{"ZCTA5CE20":"88046"}},{"arcs":[[76,77,78,79,80,-29,81,82,83,84,85],[86]],"type":"Polygon","properties":{"ZCTA5CE20":"88310"}},{"arcs":[[-52,-31]],"type":"Polygon","properties":{"ZCTA5CE20":"87935"}},{"arcs":[[88,89,90,91,92]],"type":"Polygon","properties":{"ZCTA5CE20":"79903"}},{"arcs":[[93,94,95,96,97,98,99,100,101,102,103,104,-73],[105]],"type":"Polygon","properties":{"ZCTA5CE20":"88021"}},{"arcs":[[-50,109,-15,110]],"type":"Polygon","properties":{"ZCTA5CE20":"79918"}},{"arcs":[[[111,112,-6]],[[-9,-8,113,114,-70,-63],[-38],[-76],[-1]]],"type":"MultiPolygon","properties":{"ZCTA5CE20":"88005"}},{"arcs":[[115,116]],"type":"Polygon","properties":{"ZCTA5CE20":"79920"}},{"arcs":[[-7,-113,119,120,-114],[-56]],"type":"Polygon","properties":{"ZCTA5CE20":"88001"}},{"arcs":[[121,122,123,124,125,126,127]],"type":"Polygon","properties":{"ZCTA5CE20":"79912"}},{"arcs":[[-87]],"type":"Polygon","properties":{"ZCTA5CE20":"88311"}},{"arcs":[[128,129,130,131]],"type":"Polygon","properties":{"ZCTA5CE20":"88002"}},{"arcs":[[132,133,-71,-115,-121]],"type":"Polygon","properties":{"ZCTA5CE20":"88047"}},{"arcs":[[-13,136,137,138,139]],"type":"Polygon","properties":{"ZCTA5CE20":"79907"}},{"arcs":[[-55,-53,-35,140,141,142,-21]],"type":"Polygon","properties":{"ZCTA5CE20":"87931"}},{"arcs":[[-106]],"type":"Polygon","properties":{"ZCTA5CE20":"88027"}},{"arcs":[[143,-142,144,145]],"type":"Polygon","properties":{"ZCTA5CE20":"87933"}},{"arcs":[[146,147,148]],"type":"Polygon","properties":{"ZCTA5CE20":"88063"}},{"arcs":[[[149,-119,150]],[[151,152,153]]],"type":"MultiPolygon","properties":{"ZCTA5CE20":"79849"}},{"arcs":[[-100,154,-44,-43,155,-123,156]],"type":"Polygon","properties":{"ZCTA5CE20":"79934"}},{"arcs":[[-16,-110,-49,157,-137,-12,158]],"type":"Polygon","properties":{"ZCTA5CE20":"79936"}},{"arcs":[[159,-128,160,161,-104]],"type":"Polygon","properties":{"ZCTA5CE20":"79932"}},{"arcs":[[162,163,-160,-103]],"type":"Polygon","properties":{"ZCTA5CE20":"79835"}},{"arcs":[[-126,165,-93,166,167]],"type":"Polygon","properties":{"ZCTA5CE20":"79902"}},{"arcs":[[-156,-42,168,169,170,-116,171,-124]],"type":"Polygon","properties":{"ZCTA5CE20":"79904"}},{"arcs":[[-92,172,173,174,175]],"type":"Polygon","properties":{"ZCTA5CE20":"79905"}},{"arcs":[[-170,176,-18,177,-90,178]],"type":"Polygon","properties":{"ZCTA5CE20":"79906"}},{"arcs":[[179,-140,180,-174]],"type":"Polygon","properties":{"ZCTA5CE20":"79915"}},{"arcs":[[-169,-41,-51,-111,-19,-177]],"type":"Polygon","properties":{"ZCTA5CE20":"79916"}},{"arcs":[[-178,-17,-159,-14,-180,-173,-91]],"type":"Polygon","properties":{"ZCTA5CE20":"79925"}},{"arcs":[[-158,-48,181,182]],"type":"Polygon","properties":{"ZCTA5CE20":"79928"}},{"arcs":[[-172,-117,-171,-179,-89,-166,-125]],"type":"Polygon","properties":{"ZCTA5CE20":"79930"}},{"arcs":[[183,-95]],"type":"Polygon","properties":{"ZCTA5CE20":"88024"}},{"arcs":[[-27,184,185,-132,186,187,188,-133,-120,189]],"type":"Polygon","properties":{"ZCTA5CE20":"88011"}},{"arcs":[[-143,-144,190,191,-22]],"type":"Polygon","properties":{"ZCTA5CE20":"87930"}},{"arcs":[[-146,192,193,194,-191]],"type":"Polygon","properties":{"ZCTA5CE20":"87936"}},{"arcs":[[195,196,197,-194]],"type":"Polygon","properties":{"ZCTA5CE20":"87941"}},{"arcs":[[198,-130,199,-85,200,201,-45,-155,-99]],"type":"Polygon","properties":{"ZCTA5CE20":"88081"}},{"arcs":[[-134,-189,202,-96,-184,-94,-72]],"type":"Polygon","properties":{"ZCTA5CE20":"88048"}},{"arcs":[[203,-66]],"type":"Polygon","properties":{"ZCTA5CE20":"88029"}},{"arcs":[[-84,204,-201]],"type":"Polygon","properties":{"ZCTA5CE20":"88342"}},{"arcs":[[205,-77]],"type":"Polygon","properties":{"ZCTA5CE20":"88330"}},{"arcs":[[-109,-108,-136,-79,206]],"type":"Polygon","properties":{"ZCTA5CE20":"88352"}},{"arcs":[[-185,-26,-190,-112,-5,207,208]],"type":"Polygon","properties":{"ZCTA5CE20":"88012"}},{"arcs":[[209,-163,-102]],"type":"Polygon","properties":{"ZCTA5CE20":"79821"}},{"arcs":[[-167,-176,210,211]],"type":"Polygon","properties":{"ZCTA5CE20":"79901"}},{"arcs":[[-210,-101,-157,-122,-164]],"type":"Polygon","properties":{"ZCTA5CE20":"79911"}},{"arcs":[[-161,-127,-168,-212,212,-147,213]],"type":"Polygon","properties":{"ZCTA5CE20":"79922"}},{"arcs":[[-188,214,-97,-203]],"type":"Polygon","properties":{"ZCTA5CE20":"88072"}},{"arcs":[[-135,-107,-28,-88,-80]],"type":"Polygon","properties":{"ZCTA5CE20":"88337"}},{"arcs":[[-23,-192,-195,-198,215,-3,216,-61]],"type":"Polygon","properties":{"ZCTA5CE20":"87937"}},{"arcs":[[-183,217,-118,-165,-152,218,-138]],"type":"Polygon","properties":{"ZCTA5CE20":"79927"}},{"arcs":[[219,-208,-4,-216,-197]],"type":"Polygon","properties":{"ZCTA5CE20":"87940"}},{"arcs":[[-105,-162,-214,-149,220,-74]],"type":"Polygon","properties":{"ZCTA5CE20":"88008"}}]}}}